category,phone_type,description_headers,tags,phone,company_name,address,short_description,description_paragraphs,gen_description,company_site_url
Vikarbureauer,,,,20 87 27 72,DanProff,"Havebo 6, 2500 Valby",Not specified,,,Company site unknown
Vikarbureauer,Fax,,,"30 27 21 83,54 49 21 83",Optimal Sekretærerne,"Birkebakken 9, 4850 Stubbekøbing",Not specified,,,http://www.altbogfort.dk
Vikarbureauer,,,,,Jobleasing ApS,"Askevang 3, Gørslev, 4100 Ringsted",Not specified,,,Company site unknown
Vikarbureauer,Fax,,,"51 18 06 86,33 33 03 63",Faxe Vikar ApS,"Hovedgaden 46, 4654 Faxe Ladeplads",Not specified,,,http://www.faxevikar.dk
Vikarbureauer,Fax,,Vikarbureauer###BYGGARANTI,"97 42 07 50,97 42 07 51",JKS A/S,"Enghaven 2, 7500 Holstebro",Not specified,,,http://www.jks.dk
Vikarbureauer,Mobil,,,"24 87 91 28,24 87 91 28",Birgitte Kramp Consult,"Slettevang 19, 2970 Hørsholm",Not specified,,,Company site unknown
Vikarbureauer,Mobil,,,"70 22 22 17,29 66 46 25,70 22 22 84",CAD-Kompagniet A/S,"Herstedvang 7 C, 2. sal., 2620 Albertslund",Not specified,,,http://www.cadkompagniet.dk
Vikarbureauer,,,,33 11 68 83,Cb Rekruttering ApS,"Hyskenstræde 9, 1207 København K",Not specified,,,http://www.danvikar.dk
Vikarbureauer,Fax,,,"70 26 07 00,54 82 07 10",Westrup Partner ApS,"Voldgade 4, 4800 Nykøbing F",Not specified,,,http://www.westruppartner.dk
Vikarbureauer,,,,20 22 30 61,MS Service v/ Marianne Risager S. Christiansen,"Lejrvej 35, Kirke Værløse, 3500 Værløse",Not specified,,,Company site unknown
Vikarbureauer,,,,22 98 77 99,StudieLink,"Frimestervej 28, 2400 København NV",Not specified,,,Company site unknown
Vikarbureauer,Fax,,BYGGARANTI,"70 27 76 60,70 27 76 61","Teamvikaren.Dk, Byg og Anlæg ApS","Paludan-Müllers Vej 24, 1. sal., 8200 Aarhus N",Not specified,,,http://www.teamvikaren.dk
Vikarbureauer,Fax,,,"20 20 47 37,57 67 18 12",Care One,"Hagelbjergvej 32, 4100 Ringsted",Not specified,,,http://www.careone.dk
Vikarbureauer,,,,97 56 55 53,Lyn Service ApS,"Søbylundvej 49, 7400 Herning",Not specified,,,Company site unknown
Vikarbureauer,Fax,,,"70 22 14 41,70 22 14 42",Flexhouse ApS,"Taastrup Hovedgade 23, 1. sal., 2630 Taastrup",Not specified,,,http://www.flexhouse.dk
Vikarbureauer,,,,52 69 22 10,Jacek Krawiec,"Nørrebrogade 51, st. sal., 2200 København N",Not specified,,,Company site unknown
Vikarbureauer,,,,22 70 30 78,Deluxe Group ApS,"H. C. Ørsteds Vej 50 C, 1879 Frederiksberg C",Not specified,,,Company site unknown
Vikarbureauer,,,,,Tucjob ApS,"Hejrevej 43, st. sal., 2400 København NV",Not specified,,,Company site unknown
Vikarbureauer,Tlf.,,,"75 56 49 79,20 49 79 94",T.K. FREELANCE v/ Thomas Kristoffersen,"Dalagervej 8, Erritsø, 7000 Fredericia",Not specified,,,Company site unknown
Vikarbureauer,Mobil,,,"47 31 22 00,28 56 55 22,47 16 22 33",Job-Connection,"Bakkekammen 155, 3600 Frederikssund",Not specified,,,http://www.job-connection.dk
Vikarbureauer,Fax,,,"76 28 00 82,87 80 07 60",Vikarbureauet Medarbejderne ApS,"Vitus Berings Plads 4, 8700 Horsens",Not specified,,,http://www.medarbejderne.dk
Vikarbureauer,,,,21 68 20 12,+Vikar ApS,"Maglebyvej 19, Magleby, 4672 Klippinge",Not specified,,,Company site unknown
Vikarbureauer,,,,41 11 69 38,Vikarbureauet Danmark v/ Mads-Robert Rostig,"Gl. Vordingborgvej 4, 4772 Langebæk",Not specified,,,Company site unknown
Vikarbureauer,Tlf.,,,"29 86 57 85,75 22 31 32,22 86 74 45,27 51 49 31",Pihl Vikar/Det Lille Apotek v/ Pia Pihl,"Storegade 20, 6800 Varde",Not specified,,,Company site unknown
Vikarbureauer,,,,25 59 69 28,P &amp; T Consult,"Kretavej 11, 2. th., 2300 København S",Not specified,,,Company site unknown
Vikarbureauer,Tlf.,,,"28 12 94 00,97 19 84 00,28 12 94 00,30 13 18 08",Sørens Vikarbureau v/ Søren Ingemann Christensen,"Mylius Erichsens Vej 4, 7400 Herning",Not specified,,,Company site unknown
Vikarbureauer,,,,28 92 89 08,Privatsekretæren,"Veksøvej 45, 2700 Brønshøj",Not specified,,,http://www.privatsekretaren.dk
Vikarbureauer,,,,,Jobselect.Dk ApS,"Skovdiget 4 B, 2880 Bagsværd",Not specified,,,Company site unknown
Vikarbureauer,,,,60 76 11 87,Vikar Danmark 2012 ApS,"Stærevej 61, 2. tv., 2400 København NV",Not specified,,,Company site unknown
Vikarbureauer,,,,61 27 74 11,Aalborg,"Hobrovej 317 A, 9200 Aalborg SV",Not specified,,,Company site unknown
Vikarbureauer,Tlf.,,,"55 77 34 50,55 72 12 06,55 72 12 06",Actina Office Management ApS,"Messebuen 3, 4700 Næstved",Not specified,,,Company site unknown
Vikarbureauer,,,,33 37 71 14,Alexander Mann Solutions ApS,"Larsbjørnsstræde 3, 1454 København K",Not specified,,,Company site unknown
Vikarbureauer,,,,70 22 04 16,Activcare Privat A/S,"Valby Langgade 7 B, 2500 Valby",Not specified,,,Company site unknown
Vikarbureauer,Fax,,Vikarbureauer###Personalerekruttering###BYGGARANTI,"86 44 07 50,86 44 07 51",JKS A/S,"Kirkegade 1, 3. th., 8900 Randers C",Not specified,,,http://www.jks.dk
Vikarbureauer,,,,28 44 68 53,Total Klar,"Bystrædet 60, 2610 Rødovre",Not specified,,,Company site unknown
Vikarbureauer,,,,,EC Compagny ApS,"Ørnsøvej 26, 8240 Risskov",Not specified,,,Company site unknown
Vikarbureauer,,,,27 29 43 47,Caremakers ApS,"Strandvejen 341, 1. sal., 2930 Klampenborg",Not specified,,,http://www.caremakers.dk
Vikarbureauer,,,,,HR-Kompagniet,"Delfinvej 27, 3450 Allerød",Not specified,,,Company site unknown
Vikarbureauer,,,,62 27 15 45,Fjernskriver Fyn,"Svendborgvej 4, 5772 Kværndrup",Not specified,,,Company site unknown
Vikarbureauer,Mobil,,,"60 10 30 70,26 80 81 13,28 60 87 12,28 71 43 12",Studentconsulting Danmark ApS,"Nørre Voldgade 24, st. sal., 1358 København K",Not specified,,,Company site unknown
Vikarbureauer,,,,63 12 22 72,"Nord-Vik, Nordiske Lægevikarer ApS","Dyrupgårdvænget 7, Dyrup, 5250 Odense SV",Not specified,,,http://www.nord-vik.dk
Vikarbureauer,,,,,"TeamVikaren.dk, Grindsted ApS, Afdeling Fyn","Blangstedgårdsvej 1, 5220 Odense SØ",Not specified,,,Company site unknown
Vikarbureauer,,,,53 14 41 00,Olav Mogens Thorsteinsson,"Carstensens Alle 19, 6705 Esbjerg Ø",Not specified,,,Company site unknown
Vikarbureauer,,,Vikarbureauer,70 20 03 83,Hartmanns A/S,"Nørregade 19, 6100 Haderslev",Not specified,,,http://www.hartmanns.dk
Vikarbureauer,,,,70 20 80 99,Service2Build,"Klostergade 76, 8000 Aarhus C",Not specified,,,http://www.service2build.dk
Vikarbureauer,,,,51 96 26 11,AP - Service,"Holstebrovej 16, Rindum, 6950 Ringkøbing",Not specified,,,Company site unknown
Vikarbureauer,,,,61 37 61 59,Mand-Power ApS,"Hornbækvej 340, 3080 Tikøb",Not specified,,,Company site unknown
Vikarbureauer,,,,70 22 65 55,Nexus Teknik ApS,"Kompagnistræde 13, 1208 København K",Not specified,,,http://www.nexus-interim.dk
Vikarbureauer,,,,20 25 48 97,Viktech ApS,"Ved Stationen 29, 2770 Kastrup",Not specified,,,Company site unknown
Vikarbureauer,,,,,Jobcentret,"Nørregade 41, 6100 Haderslev",Not specified,,,Company site unknown
Vikarbureauer,,,,,Arbejdsmarkedsteam,"Engvej 5, 7800 Skive",Not specified,,,Company site unknown
Vikarbureauer,Mobil,,,"59 59 92 20,23 41 90 70,23 84 42 40,40 73 92 20",Sundheds Service A/S,"Voldbjerg 23, Ugerløse, 4400 Kalundborg",Not specified,,,http://www.sundhedsservice.dk
Vikarbureauer,Mobil,,,"22 91 04 17,22 91 04 17,40 47 74 51",Cigno v/ Jens Møller,"Bispensgade 32, 2. sal., 9000 Aalborg",Not specified,,,Company site unknown
Vikarbureauer,,,,42 24 62 15,TN Crew Denmark,"Sellerupvej 32, Sellerup, 7080 Børkop",Not specified,,,Company site unknown
Vikarbureauer,Website,,,"24 40 17 80,
									,
								",Vikar Service,"Teknikvej 6 A, 4532 Gislinge",Not specified,,,http://www.vikanpolering.dk
Vikarbureauer,,,,70 15 00 10,Markman rekruttering &amp; genplacering A/S,"Toftevej 53, 8362 Hørning",Not specified,,,Company site unknown
Vikarbureauer,,,,51 97 74 81,Hvid Consult,"Fyrrelunden 29, 2635 Ishøj",Not specified,,,Company site unknown
Vikarbureauer,Fax,,,"97 22 30 64,97 22 30 65",Job-Banken.nu,"Nygade 4, 7400 Herning",Not specified,,,http://www.job-banken.nu
Vikarbureauer,Tlf.,,,"28 30 01 00,70 30 00 80,23 95 58 82,27 11 16 06",Strepa ApS,"Havnegade 39, 1058 København K",Not specified,,,http://www.strepa.com
Vikarbureauer,Mobil,,,"63 44 00 82,20 11 18 12,76 82 00 83",Medarbejderne ApS,"Østergade 35, 5500 Middelfart",Not specified,,,http://www.medarbejderne.dk
Vikarbureauer,,,,,Fi Entreprise ApS,"Odensevej 165, Skallebølle, 5492 Vissenbjerg",Not specified,,,Company site unknown
Vikarbureauer,,,,31 17 68 90,DK Kyndesen,"Gernersgade 24, 1319 København K",Not specified,,,Company site unknown
Vikarbureauer,,,,31 31 41 39,B &amp; A Service I/S,"C. T. Barfoeds Vej 4, st. th., 2000 Frederiksberg",Not specified,,,http://www.baservice.dk
Vikarbureauer,,,,55 73 88 70,JS Vikar-Dansk Vikarbureau,"Skovkanten 136, 4700 Næstved",Not specified,,,http://www.js-vikar.dk
Vikarbureauer,,,,21 66 54 15,U.W. Service v/ Ulla Weishaupt,"Lille Strandgårdsvej 4, 2690 Karlslunde",Not specified,,,Company site unknown
Vikarbureauer,Fax,,,"86 12 95 88,86 18 52 40,


    ,
                            ",Randstad,"Frederiksgade 1, 8000 Aarhus C",Not specified,,,http://www.randstad.dk
Vikarbureauer,Mobil,,,"98 55 71 02,28 55 06 59,98 55 71 02",KM Projob ApS,"Døstrupvej 108, Døstrup, 9500 Hobro",Not specified,,,Company site unknown
Vikarbureauer,Fax,,,"96 35 07 50,96 35 07 51",JKS A/S,"Østerågade 6, 1. sal., 9000 Aalborg",Not specified,,,http://www.jks.dk
Vikarbureauer,Mobil,,,"21 76 66 31,25 54 51 13,25 70 71 13,33 31 31 18",ElementsCph v/ Rasmus Riel List Nielsen,"Mosede Klintvej 29, 2670 Greve",Not specified,,,Company site unknown
Vikarbureauer,Fax,,,"76 32 66 66,76 32 66 61",Kelly Services,"Jernbanegade 5, 2. sal., 6000 Kolding",Not specified,,,http://www.kellyservices.dk
Vikarbureauer,,,,,F-Consult S.M.B.A.,"Solvangsvej 12, 2600 Glostrup",Not specified,,,Company site unknown
Vikarbureauer,,,,23 23 17 64,N. L. Vikarservice v/ Nikolaj Laursen,"Søndervang 27, Mammen, 8850 Bjerringbro",Not specified,,,Company site unknown
Vikarbureauer,,,,30 78 35 71,Egebo,"Tjørneparken 2, Svinninge, 4572 Nørre Asmindrup",Not specified,,,Company site unknown
Vikarbureauer,Fax,,,"63 12 80 00,63 12 80 01,


    ,
                            ",ActivCare A/S,"Rugårdsvej 20, 5000 Odense C",Not specified,,,http://www.activcare.dk
Vikarbureauer,,,,,Dansk Magna Service ApS,"Knud Bro Alle 5 F, 3660 Stenløse",Not specified,,,Company site unknown
Vikarbureauer,Mobil,,,"70 29 40 50,40 62 39 50,40 63 71 82,40 63 71 83",Konsulenthuset Ballisager A/S,"Søren Frichs Vej 3, 3. sal., 8000 Aarhus C",Not specified,,,http://www.ballisager.com
Vikarbureauer,,,,36 41 62 00,Rip I af 25 Februar 2009 ApS,"Hvidovrevej 80 C, 2610 Rødovre",Not specified,,,Company site unknown
Vikarbureauer,,,,51 49 09 99,X-Ray ApS,"Risdalsvej 2 A, 8260 Viby J",Not specified,,,Company site unknown
Vikarbureauer,,,,,Institut For Karriereudvikling A/S,"Holgersgade 1, 1. sal., 7900 Nykøbing M",Not specified,,,Company site unknown
Vikarbureauer,Fax,,,"45 93 03 03,45 93 32 03",Alliance Personaleløsninger AS,"Parallelvej 10, 2800 Kgs. Lyngby",Not specified,,,http://www.alliancepersonale.dk
Vikarbureauer,,,,61 86 36 67,MPX Service,"Irisvej 23, 7400 Herning",Not specified,,,Company site unknown
Vikarbureauer,"
E-mail                                ",,,"20 43 45 43,


    ,
                            ",Elite Rekruttering Martin Broesbøl,"Agerbæksvej 7 B, 8240 Risskov",Not specified,,,http://www.eliterekruttering.dk
Vikarbureauer,Tlf.,,,"35 10 63 63,61 77 63 63,61 77 63 63",mv vikar v/ Mikael Ib Vinberg,"Sommersvej 20, 3400 Hillerød",Not specified,,,Company site unknown
Vikarbureauer,,,,,Henrik Jørgensen,"Gardeniavej 2, 2970 Hørsholm",Not specified,,,Company site unknown
Vikarbureauer,Mobil,,,"61 69 55 01,30 55 55 05",D. S. A. Teknik &amp; Support,"Boholtevej 51, 4600 Køge",Not specified,,,Company site unknown
Vikarbureauer,,,,23 20 76 96,LC Vikar,"Silkeborgvej 30, 4200 Slagelse",Not specified,,,Company site unknown
Vikarbureauer,Fax,,,"70 10 33 35,70 10 33 25",Job Vision A/S Aars,"Messevej 1, 9600 Aars",Not specified,,,Company site unknown
Vikarbureauer,Mobil,,,"59 26 53 59,23 27 46 22,29 78 79 00,31 79 45 55",3 S ApS,"Rugvænget 18, 4520 Svinninge",Not specified,,,Company site unknown
Vikarbureauer,Mobil,,,"42 44 00 12,31 45 80 11",Ekstramandskab.Dk ApS,"Hauser Plads 32, 1127 København K",Not specified,,,Company site unknown
Vikarbureauer,,,,75 72 10 15,Job-Center,"Sverigesvej 2, 7100 Vejle",Not specified,,,Company site unknown
Vikarbureauer,,,,51 31 98 35,Dansk Service og Rekruttering smba,"Enghave Plads 17, 1670 København V",Not specified,,,Company site unknown
Vikarbureauer,Fax,,,"52 17 46 76,66 11 13 18",Assistin ApS,"Langelinie 69, 5230 Odense M",Not specified,,,Company site unknown
Vikarbureauer,,,,,Trio Boligudlejning ApS,"Sattrupvej 2, Sattrup, 8752 Østbirk",Not specified,,,Company site unknown
Vikarbureauer,Fax,,,"97 21 69 21,76 14 09 40",Temp-Team A/S,"Nørregade 14, 6700 Esbjerg",Not specified,,,http://www.temp-team.dk
Vikarbureauer,Mobil,,,"20 27 81 86,20 27 81 86,22 40 74 10",Job40Plus v/ Hanne Johnsen,"Jyllandsgade 26, 4100 Ringsted",Not specified,,,Company site unknown
Vikarbureauer,Tlf.,,,"60 78 62 73,46 13 67 05,22 37 52 37",Tune Demo Service v/ Gitte Kristiansen,"Bondestien 1, 4030 Tune",Not specified,,,Company site unknown
Vikarbureauer,,,,70 21 02 11,Egebo 1,"Holbækvej 11, 4200 Slagelse",Not specified,,,Company site unknown
Vikarbureauer,Mobil,,,"70 27 76 60,23 70 71 71,70 27 76 61",PV af 2007 ApS,"Rolfsgade 4, 8260 Viby J",Not specified,,,http://www.profilvikar.dk
Vikarbureauer,Mobil,,,"97 25 17 10,20 70 40 03",Vikarservice,"Thygesensvej 34, 7430 Ikast",Not specified,,,Company site unknown
Vikarbureauer,,,,70 20 88 82,Capacent - Institut for Karriereudvikling - Næstvedafdelingen,"Elverhøjsvej 16, 4700 Næstved",Not specified,,,Company site unknown
Vikarbureauer,,,,,Jobcenter Guldborgsund,"Dronningensgade 26, 4800 Nykøbing F",Not specified,,,Company site unknown
Vikarbureauer,Fax,,,"76 28 00 82,87 80 07 60",Vikarbureauet Medarbejderne ApS,"Værkstedsvej 12, Skrillinge, 5500 Middelfart",Not specified,,,http://www.medarbejderne.dk
Vikarbureauer,,,,60 40 84 09,Vikarbureauet Primær Sygeplejen ApS,"Mørkhøjvej 132, 2730 Herlev",Not specified,,,http://www.vikar-ps.dk
Vikarbureauer,Mobil,,,"98 63 33 95,40 95 33 95,98 63 33 95",PJ-tec v/ Preben Jensen,"Skolegade 37, Overlade, 9670 Løgstør",Not specified,,,Company site unknown
Vikarbureauer,Tlf.,,,"87 32 16 00,70 23 88 23,70 23 88 24,21 47 04 50",Pedersen &amp; HR Mæglerne v/ Allan Pedersen,"Edwin Rahrs Vej 50, 1. sal., 8220 Brabrand",Not specified,,,Company site unknown
Vikarbureauer,Fax,,,"75 80 23 44,75 80 23 58",Job4gruppen ApS,"Bredgade 22, 7160 Tørring",Not specified,,,Company site unknown
Vikarbureauer,,,,26 80 19 00,Fusager Strandberg Svejseservice I/S v/ Erik Fusager &amp; Claus S…,"Rolfsgade 69, 6700 Esbjerg",Not specified,,,Company site unknown
Vikarbureauer,,,,47 10 02 50,Human Values,"Dronning Dagmars Vej 108, 3650 Ølstykke",Not specified,,,Company site unknown
Vikarbureauer,,,,,Brøndum Service,"Skolegade 5, 9632 Møldrup",Not specified,,,Company site unknown
Vikarbureauer,,,,51 95 83 92,Zeker Vikar,"Charlotteager 18, Baldersbrønde, 2640 Hedehusene",Not specified,,,Company site unknown
Vikarbureauer,,,,,Næsborg A/S,"Holbergsvej 13, 4180 Sorø",Not specified,,,Company site unknown
Vikarbureauer,Mobil,,,"24 41 58 70,21 16 95 47",Jobkonsulenterne.dk v/ Poul Erik Philipsen,"Ildfuglevænget 113, Hjallese, 5260 Odense S",Not specified,,,Company site unknown
Vikarbureauer,,,,50 91 68 28,Tinas Vikarservice,"Assensvej 167, Skrillinge, 5500 Middelfart",Not specified,,,Company site unknown
Vikarbureauer,Tlf.,,,"75 72 72 37,76 40 71 19,24 59 62 33,75 72 72 49",Vikargruppen Danmark A/S,"Dæmningen 56, 7100 Vejle",Not specified,,,http://www.vgd.dk/
Vikarbureauer,Fax,,,"43 61 06 11,70 20 46 41",H. J. Consulting ApS,"Blågårdsparken 7, 2670 Greve",Not specified,,,Company site unknown
Vikarbureauer,Mobil,,,"25 77 82 36,20 26 08 02,22 30 68 22,25 77 82 37",Spencer Stuart International P/S,"Philip Heymans Alle 7, 2900 Hellerup",Not specified,,,Company site unknown
Vikarbureauer,,,,61 67 38 99,Rifbjerg-Konsulenterne v/ Niels Rifbjerg Møller,"Bragesvej 23, st. th., 3000 Helsingør",Not specified,,,Company site unknown
Vikarbureauer,Fax,,,"75 36 36 88,75 36 36 89",JobTeam A/S,"Nørregade 49, 6600 Vejen",Not specified,,,http://www.jobteam.dk
Vikarbureauer,Fax,,,"70 22 40 30,70 22 40 31",Iselection ApS,"Gammel Strand 44, 1202 København K",Not specified,,,Company site unknown
Vikarbureauer,Mobil,,,"47 52 40 13,29 78 50 13",Bjørndals Mandskabsudlejning,"Østergade 27 A, Skuldelev, 4050 Skibby",Not specified,,,Company site unknown
Vikarbureauer,,,,,Bhl-Entreprise ApS,"Rodsøvej 9, Egsmark, 8400 Ebeltoft",Not specified,,,Company site unknown
Vikarbureauer,,,,26 15 89 64,CF Consult,"Fiskergade 2, Gylling, 8300 Odder",Not specified,,,Company site unknown
Vikarbureauer,Mobil,,,"35 83 08 00,31 16 80 61,31 77 45 94,35 83 80 59",Flink Service ApS,"Rådmand Steins Allé 12, 2000 Frederiksberg",Not specified,,,http://www.flink-service.dk
Vikarbureauer,Tlf.,,,"55 99 32 00,55 99 18 24,55 99 35 51",Flexing A/S,"Grønnegade 3, 4720 Præstø",Not specified,,,http://www.Flexing.dk
Vikarbureauer,,,,60 68 34 65,Bom's vikarservice Bettina Astrup Pedersen,"Bredgade 27, 6830 Nørre Nebel",Not specified,,,Company site unknown
Vikarbureauer,,,,30 20 77 00,Studenterservice S.M.B.A,"Hjørringgade 21, 2100 København Ø",Not specified,,,Company site unknown
Vikarbureauer,,,,23 70 25 00,Jobtriumf.dk v/ Claus Rigall,"Egernvænget 311, Ullerød, 2980 Kokkedal",Not specified,,,Company site unknown
Vikarbureauer,,,,40 56 61 64,Voot Danmark ApS,"Præstefælledvej 42, 2770 Kastrup",Not specified,,,Company site unknown
Vikarbureauer,,,,,JOBDK Herning,"Østergade 25, 7400 Herning",Not specified,,,Company site unknown
Vikarbureauer,,,,26 83 20 42,Hals Vikarbureau ApS,"Indkildevej 2 B, 9210 Aalborg SØ",Not specified,,,Company site unknown
Vikarbureauer,,,,41 26 59 16,Anil &amp; Mathias Consulting I/S,"Kollegiebakken 15, 2800 Kgs. Lyngby",Not specified,,,Company site unknown
Vikarbureauer,,,,97 11 66 72,Erik Ankersen,"Højgade 48, Hammerum, 7400 Herning",Not specified,,,Company site unknown
Vikarbureauer,Fax,,,"70 20 22 02,70 20 22 49",Medpro Executive ApS,"Damsholtevej 3, Gunderød, 2970 Hørsholm",Not specified,,,http://www.medpro.dk
Vikarbureauer,Tlf.,,,"75 51 88 88,75 51 86 88,75 51 86 88,


    ,
                            ",Horton International A/S,"Centervej 2, Bramdrupdam, 6000 Kolding",Not specified,,,http://www.horton.dk
Vikarbureauer,Mobil,,,"43 96 86 66,40 35 51 41,43 96 77 68",PersonaleBureauet Max,"Jernbanevej 57, 2600 Glostrup",Not specified,,,http://www.personalebureauet.dk
Vikarbureauer,,,,97 56 88 89,Lindberg Industriservice,"Vestre Skivevej 104, Sjørup, 8800 Viborg",Not specified,,,Company site unknown
Vikarbureauer,,,,,Ilcon ApS,"Bredgade 31, 4. sal., 1260 København K",Not specified,,,Company site unknown
Vikarbureauer,Fax,,,"33 37 62 40,33 15 03 53,33 37 62 41,
									,
								",Vikargruppen Danmark,"Finsensvej 42, 2000 Frederiksberg",Not specified,,,http://www.vgd.dk
Vikarbureauer,,,,,Castingportalen.Dk ApS,"Snedkervej 5, 4600 Køge",Not specified,,,Company site unknown
Vikarbureauer,Tlf.,,,"45 54 05 40,70 26 06 22,30 48 45 05,61 60 85 91",Powercare A/S,"Sønderhøj 16, 1. sal., 8260 Viby J",Not specified,,,http://www.powercare.dk
Vikarbureauer,Fax,,,"36 34 79 00,36 34 79 19",Copenhagen Care A/S,"Havnegade 41, 1. sal., 1058 København K",Not specified,,,Company site unknown
Vikarbureauer,,,,72 22 33 00,Workindenmark East,"Skagensgade 37, 1. sal., Høje Taastrup, 2630 Taastrup",Not specified,,,Company site unknown
Vikarbureauer,,,,29 63 20 71,Troldebakken ApS,"Teglværksvej 4, Starreklinte, 4534 Hørve",Not specified,,,Company site unknown
Vikarbureauer,Mobil,,,"97 40 20 02,30 30 20 43",Vianovo v/ Klaus Kristian Seerup,"Valmuevej 33, 7500 Holstebro",Not specified,,,Company site unknown
Vikarbureauer,Fax,,,"20 44 00 72,43 43 73 72,


    ,
                            ",Vikarassistancen,"Stadionvej 89, st. th., 2600 Glostrup",Not specified,,,http://www.vikarassistancen.dk
Vikarbureauer,Tlf.,,,"86 27 44 66,74 54 70 90,86 97 44 66,24 81 29 08",Jordy v/ Jordy Vincent,"Sandersvig Strandvej 32, Sandersvig, 6100 Haderslev",Not specified,,,Company site unknown
Vikarbureauer,Fax,,,"42 78 11 41,49 75 10 19",GJ Vikar ApS,"Hvidovrevej 80 A, 2610 Rødovre",Not specified,,,http://www.gjvikar.dk
Vikarbureauer,,,,,"Konsulenthuset Ballisager, Odense-afdeling","Dannebrogsgade 1, 5000 Odense C",Not specified,,,Company site unknown
Vikarbureauer,,,,56 65 93 48,Arnes Bager Vikar,"Bodilsvej 5, 4600 Køge",Not specified,,,Company site unknown
Vikarbureauer,Fax,,,"70 22 33 00,48 79 78 97",Medikom Vikarbureau ApS,"Buchwaldsgade 50, 5000 Odense C",Not specified,,,http://www.medikom.dk
Vikarbureauer,Tlf.,,,"70 26 68 00,70 26 68 08",Friis International,"Amaliegade 14, 2. sal., 1256 København K",Not specified,,,Company site unknown
Vikarbureauer,,,,20 20 00 68,Elini,"Nymøllevej 127, 2800 Kgs. Lyngby",Not specified,,,Company site unknown
Vikarbureauer,Mobil,,,"46 32 45 33,20 67 69 89,20 81 91 16,20 90 69 80",DanaCare A/S,"Hersegade 18, 1. sal., 4000 Roskilde",Not specified,,,http://www.danacare.dk
Vikarbureauer,Fax,,,"33 32 79 95,33 32 79 94",Proffice Care A/S,"Sjæleboderne 2, 3. sal., 1122 København K",Not specified,,,http://www.profficecare.dk
Vikarbureauer,,,,,Romital-Sapori,"Sanddalvej 4, Sanddal, 7000 Fredericia",Not specified,,,Company site unknown
Vikarbureauer,,,,28 92 56 52,Backe Vikar,"Karetmagervej 39, 3100 Hornbæk",Not specified,,,Company site unknown
Vikarbureauer,,,,44 95 61 90,Testbureauet v/ Inge Merete Christensen,"Brudevænget 22, 3520 Farum",Not specified,,,Company site unknown
Vikarbureauer,,,,46 35 21 22,Lindbergs Multi Service,"Lysholmsvej 23, 4000 Roskilde",Not specified,,,Company site unknown
Vikarbureauer,Mobil,,,"54 85 00 65,29 65 99 63",Kenn Din Handymann,"Colbjørnsensvej 16, 4800 Nykøbing F",Not specified,,,Company site unknown
"Værktøjsmaskiner og -tilbehør,Vikarbureauer",Mobil,,,"73 52 22 85,28 71 22 85,73 52 22 86",Kim Schack Madsen,"Nørregade 44, 6100 Haderslev",Not specified,,,Company site unknown
"Tømrere og snedkere,Vikarbureauer",Mobil,,,"98 84 14 23,40 15 14 25,61 38 44 13",Ørsø Vikar Bureau,"Dorfvej 8, Ørsø, 9330 Dronninglund",Not specified,,,Company site unknown
Vikarbureauer,Mobil,,,"49 16 06 24,26 12 88 51,40 82 88 50,42 78 04 02",Direktør Ib Bergstrøm,"Enghavegårdsvej 64, Nr. Herlev, 3400 Hillerød",Not specified,,,Company site unknown
"Vikarbureauer,Restauranter",,,,50 50 19 59,Det Gode Landkøkken ApS,"Kongevejen 124 A, Lønholt, 3480 Fredensborg",Not specified,,,Company site unknown
Vikarbureauer,Tlf.,,,"63 16 00 61,63 16 00 71,75 94 52 35,75 94 52 36",Søgaard Industri A/S,"Kingstrupvej 46, 5592 Ejby",Not specified,,,Company site unknown
Vikarbureauer,Fax,,,"35 27 17 00,35 27 17 01,


    ,
                            ,
									,
								",Proffice Care A/S,"Sjæleboderne 2, 3. sal., 1122 København K",Not specified,,,http://www.proffice.dk
Vikarbureauer,,,,63 23 85 95,Helper Sp. Z O.O.,"Bregnebjergvej 1, Mellemballe, 5620 Glamsbjerg",Not specified,,,Company site unknown
Vikarbureauer,,,,53 38 00 09,Lisberg Invest v/ Mark Lisberg Christensen,"Stensgårdsvej 56, Erritsø, 7000 Fredericia",Not specified,,,Company site unknown
Vikarbureauer,Mobil,,,"58 52 77 14,21 79 42 95,30 66 08 58",Thorsted Rekrutering og Virksomhedsrådgivning …,"Skovduevænget 5, 4200 Slagelse",Not specified,,,http://www.thorstedslagelse.dk
"Bygge- og anlægsentreprenører,Vikarbureauer",Mobil,,,"22 52 05 20,20 40 25 88",LR International ApS,"Messingvej 62 B, 8940 Randers SV",Not specified,,,http://www.l-r-international.com
Vikarbureauer,,,,,Ramsdal Vikar &amp; Rekruttering A/S,"Finsensvej 80 A, 2000 Frederiksberg",Not specified,,,Company site unknown
Vikarbureauer,Mobil,,,"36 48 02 20,26 66 44 51,36 35 06 59",Vikar MayDay ApS,"Nygårds Plads 5, 2605 Brøndby",Not specified,,,http://www.vikarmayday.dk
Vikarbureauer,Mobil,,,"21 25 22 20,21 25 22 20",Bolette Lauridsen,"Vesterbrogade 96, 5. tv., 1620 København V",Not specified,,,Company site unknown
Vikarbureauer,,,,87 62 30 30,AktivPersonale A/S,"Banealle 8 H, 8450 Hammel",Not specified,,,http://www.aktivpersonale.dk
Vikarbureauer,Mobil,,,"32 96 31 11,22 37 11 72,26 16 11 72,52 19 03 52",Amer Service ApS,"H. C. Ørsteds Vej 11 A, 1879 Frederiksberg C",Not specified,,,Company site unknown
Vikarbureauer,Fax,,"Vikarbureauer###Personalerekruttering###Industri og produktion, vikarjob###Tømrervikarer###Svejservikarer###Elektrikervikarer","96 75 07 50,96 75 07 51",JKS a/s,"Rødkløvervej 2, Rindum, 6950 Ringkøbing",Not specified,,,http://www.jks.dk
Vikarbureauer,,,,40 76 43 40,Oneconsulent ApS,"Holmevej 16 B, 2970 Hørsholm",Not specified,,,Company site unknown
Vikarbureauer,,,,26 71 78 34,KLM Mandskab ApS,"Skovvej 15, 4230 Skælskør",Not specified,,,Company site unknown
Vikarbureauer,,,,20 54 97 21,Kompetancehuset JKS ApS,"Farverivej 3, 6900 Skjern",Not specified,,,Company site unknown
Vikarbureauer,Mobil,,,"75 86 99 77,60 94 61 01,75 86 99 66,


    ,
                            ",1bee ApS,"Ouskær 28, Andkær, 7080 Børkop",Not specified,,,http://www.danskdemosalg.dk
Vikarbureauer,Fax,,,"73 83 00 00,35 43 27 73",Elitevikar ApS,"Hjalmar Brantings Plads 2 A, 2100 København Ø",Not specified,,,http://www.elitevikar.dk
Vikarbureauer,Mobil,,,"74 65 17 76,20 88 65 55,26 32 17 76",Hans Jacob Thaysen,"Sandagervej 1, Rinkenæs, 6300 Gråsten",Not specified,,,Company site unknown
Vikarbureauer,Mobil,,,"70 26 78 90,40 34 78 90,55 73 89 60",Tegnecenter Olden ApS,"Omøvej 9, 4700 Næstved",Not specified,,,http://www.Olden.dk
Vikarbureauer,Mobil,,,"47 33 39 93,22 42 62 48",Svend Erik Olsen,"Ny Næstvedvej 15, 4683 Rønnede",Not specified,,,Company site unknown
Vikarbureauer,,,,89 59 20 00,Jobcenter Nordjurs kommune,"Torvet 3, 8500 Grenaa",Not specified,,,Company site unknown
"Elinstallatører,Vikarbureauer",,,,66 16 65 24,RJ Service,"Beravænget 15, Højstrup, 5210 Odense NV",Not specified,,,Company site unknown
Vikarbureauer,,,,40 33 45 32,Inlet René Klitgaard Frederiksen,"Hans Kirks Vej 6, Gjøl, 9440 Aabybro",Not specified,,,Company site unknown
Vikarbureauer,,,,53 31 29 76,Tjener Team I/S,"Lauritz Sørensens Vej 20, 2000 Frederiksberg",Not specified,,,http://www.tjenerteam.dk
Vikarbureauer,Fax,,,"44 27 30 00,36 89 30 10",Team System Vikar ApS,"Herlev Hovedgade 119, 2730 Herlev",Not specified,,,http://www.systemvikar.dk
Vikarbureauer,Tlf.,,,"70 23 53 70,70 23 33 25,70 23 33 70,70 23 63 70",Baltic Workforce SmbA,"Langebrogade 5, 1411 København K",Not specified,,,Company site unknown
Vikarbureauer,Mobil,,,"40 78 21 12,40 62 31 23,


    ,
                            ",MR VikarService ApS,"Smedeland 7, 1. sal., 2600 Glostrup",Not specified,,,http://www.mrvikarservice.dk
Vikarbureauer,,,Vikarbureauer,70 20 03 83,Hartmanns A/S,"Ny Østergade 5, 3600 Frederikssund",Not specified,,,Company site unknown
Vikarbureauer,Fax,,,"70 20 29 28,66 10 20 80",Wikar ApS,"Agerhatten 16, Tornbjerg, 5220 Odense SØ",Not specified,,,http://www.vsd.dk
Vikarbureauer,,,,,UU Århus,"Værkmestergade 15 B, 8000 Aarhus C",Not specified,,,Company site unknown
Vikarbureauer,,,,98 46 52 23,Fladholt Rujob ApS,"Hestvangvej 6, Karup, 9300 Sæby",Not specified,,,Company site unknown
Vikarbureauer,,,,58 14 13 14,Skælskør Service Kompagni John Thorkild Pedersen,"Sønder Bjergevej 191, Sdr. Bjerge, 4261 Dalmose",Not specified,,,Company site unknown
Vikarbureauer,,,,26 29 22 42,Kvi ApS,"Ådalen 105, 9700 Brønderslev",Not specified,,,Company site unknown
Vikarbureauer,Mobil,,,"55 34 14 00,24 94 19 78,24 94 19 79,24 94 20 23",Vip Vikar,"Algade 38 C, 1. sal., 4760 Vordingborg",Not specified,,,http://www.vipvikar.dk
Vikarbureauer,Fax,,,"86 18 03 83,86 18 03 53",Proffice A/S,"Østergade 33, 8000 Aarhus C",Not specified,,,http://www.proffice.dk
Vikarbureauer,,,,,Dp Vikar ApS,"Suså Landevej 19, Gelsted, 4160 Herlufmagle",Not specified,,,Company site unknown
Vikarbureauer,Tlf.,,,"87 11 07 44,87 12 03 78,87 11 07 40",Temp-Team A/S,"Torvegade 21, 8900 Randers C",Not specified,,,http://www.temp-team.dk
Vikarbureauer,Mobil,,,"30 42 75 91,22 46 99 78",Juul &amp; Partner v/ Henrik Juul Hansen,"Nørholmsvej 35, 9000 Aalborg",Not specified,,,Company site unknown
Vikarbureauer,Tlf.,,,"75 45 37 81,75 45 35 77",Dfh Ejendomme ApS,"D. Lauritzens Vej 14, 6700 Esbjerg",Not specified,,,Company site unknown
Vikarbureauer,Tlf.,,,"33 15 42 06,45 16 19 19,45 76 65 75,28 51 56 12",Taplow Denmark P/S,"Slotsmarken 14, 1. tv., 2970 Hørsholm",Not specified,,,Company site unknown
"Rekrutteringsfirmaer,Vikarbureauer",Fax,,,"86 17 50 49,86 17 50 51",eliteMatch,"Prins Knuds Vej 26, 8240 Risskov",Not specified,,,http://www.elitematch.dk
Vikarbureauer,,,,42 30 35 05,Carpe Diem,"Hans Atkesvej 3, 3550 Slangerup",Not specified,,,http://carpediemvikar.dk
Vikarbureauer,Mobil,,,"97 45 24 86,24 24 97 06",Haderup Vikarservice v/ Bo Møller Frederiksen,"Karupvej 13, 7540 Haderup",Not specified,,,Company site unknown
Vikarbureauer,Fax,,,"33 91 18 00,33 91 18 03",Laigaard &amp; Partners A/S,"Store Kongensgade 40 H, 3. sal., 1264 København K",Not specified,,,http://www.laigaard-partners.dk
Vikarbureauer,,,,,Timeselectas A/S,"Park Allé 295, 2. sal., 2605 Brøndby",Not specified,,,Company site unknown
Vikarbureauer,Mobil,,,"96 18 57 00,20 28 00 85,96 17 53 52",Nordvestjydsk Vikarservice,"Silstrupvej 12, Tilsted, 7700 Thisted",Not specified,,,http://www.nvvi.dk
Vikarbureauer,Mobil,,,"26 33 56 97,21 20 20 75,24 61 57 75,52 17 88 03",HammeRshøy Human Resource Center v/ Poul Hammershøy,"Gyldenstens Vænge 31, 3600 Frederikssund",Not specified,,,Company site unknown
Vikarbureauer,,,,75 75 33 17,P.J. Udlejning v/ Jørgen Løhde,"Østergade 31 A, 8740 Brædstrup",Not specified,,,Company site unknown
Vikarbureauer,Mobil,,,"97 88 14 55,23 93 45 60,61 54 36 28",Holms Vikarservice,"Bækmarksbrovej 79, Flynder, 7660 Bækmarksbro",Not specified,,,http://www.holmsvikarservice.dk/
Vikarbureauer,,,,,Medicollect ApS,"Morsøvej 20, 2720 Vanløse",Not specified,,,Company site unknown
Vikarbureauer,,,,,Mla Invest ApS,"Saxogade 9, 1. th., 1662 København V",Not specified,,,Company site unknown
Vikarbureauer,,,,30 91 64 85,MB Vikar &amp; Maskinservice,"Toftegårdsvej 140, 9440 Aabybro",Not specified,,,Company site unknown
Vikarbureauer,Mobil,,,"33 11 05 91,60 65 05 91,33 11 05 91",EM Vikarservice v/ Else Marie Christensen,"Eveldrupvej 13, Simested, 9620 Aalestrup",Not specified,,,Company site unknown
Vikarbureauer,Tlf.,,,"76 27 40 44,76 27 50 44,76 27 60 44,20 99 20 44","Busch Management Aps, Executive Search &amp; Busin…","Søstedvej 8, Søsted, 5792 Årslev",Not specified,,,http://www.busch-management.dk
Vikarbureauer,,,,35 35 67 71,Pitten Service ApS,"Rolighedsvej 19, 1958 Frederiksberg C",Not specified,,,Company site unknown
Vikarbureauer,,,,,Joblink Holbæk ApS,"Rolighedsstræde 11, st. th., 4300 Holbæk",Not specified,,,Company site unknown
Vikarbureauer,Mobil,,,"74 65 39 30,20 24 59 79,40 26 14 99",PJR-Offshore-Services v/ Poul Jørgen Rødgaard,"Højmark 31, Rinkenæs, 6300 Gråsten",Not specified,,,Company site unknown
Vikarbureauer,Fax,,Vikar###Personalerekruttering###Byggemedarbejdere###Byggevikarer###Kantinemedarbejdere###Kontormedarbejdere,"38 88 94 00,38 88 94 01,


    ,
                            ",Adecco A/S,"Falkoner Allé 1, 2000 Frederiksberg",Not specified,,,http://www.adecco.dk
Vikarbureauer,,,,47 38 75 91,Konsulentfirmaet Jette Krog ApS,"Skoleparken 18, 3600 Frederikssund",Not specified,,,Company site unknown
Vikarbureauer,Mobil,,,"55 50 50 69,40 32 76 26",Silver Advisory Group v/ Hans Henrik Lorents Hjorth,"Broksøvej 46, Broksø, 4160 Herlufmagle",Not specified,,,Company site unknown
Vikarbureauer,Fax,,"Vikarformidling###Personalerekruttering###Rekrutteringssparring###Advokatsekretærer, vikarjob###Sagsbehandlere, vikarjob###Sprogsekretærer, vikarjob###Translatører, vikarjob###Regnskabsmedarbejdere###Receptionister, vikarjob###Administration, vikarjob","33 11 70 14,33 11 70 16",ServiceBureau ApS,"H. C. Ørsteds Vej 50 C, 1879 Frederiksberg C",Not specified,,,http://www.servicebureau.dk
Vikarbureauer,Mobil,,,"97 97 56 57,20 44 56 57,21 26 66 57,97 97 56 67",Baltzer's Udlejning,"Krovej 36, Klitmøller, 7700 Thisted",Not specified,,,http://www.baltzers-udlejning.dk
Vikarbureauer,,,,38 32 16 16,Henrik Slaatorn,"Høeghsmindeparken 7, 1. tv., 2900 Hellerup",Not specified,,,http://www.castordata.dk
Vikarbureauer,,,,32 17 10 34,Mols Vikarservice,"Johnsgårdvej 10 A, 6870 Ølgod",Not specified,,,Company site unknown
Vikarbureauer,Mobil,,,"86 85 12 78,40 64 00 34",Mester Selv ApS,"Tollundvej 5, 8600 Silkeborg",Not specified,,,Company site unknown
Vikarbureauer,,,,76 50 09 00,Danske Billund ApS,"Kløvermarken 120, 7190 Billund",Not specified,,,http://www.danske.as
Vikarbureauer,,,,48 76 07 50,"JKS a/s, Hillerød","Torvet 9, 3400 Hillerød",Not specified,,,http://www.jks.dk
Vikarbureauer,,,,26 80 44 40,Youngacademics ApS,"Porcelænshaven 6 A, 2000 Frederiksberg",Not specified,,,Company site unknown
"Handymænd,Vikarbureauer",,,,23 48 89 23,Handyman-til-leje,"Limfjordsgade 81, Gjøl, 9440 Aabybro",Not specified,,,http://www.handyman-til-leje.dk
Vikarbureauer,,,,,ROAHL v/ Thomas Lillelund Jensen,"P. Knudsens Gade 16, 2. th., 2450 København SV",Not specified,,,Company site unknown
Vikarbureauer,,,,,Job &amp; Anerkendelse,"Skovsøgade 10, 4200 Slagelse",Not specified,,,Company site unknown
"Vikarbureauer,Vognmænd",Tlf.,,,"70 26 26 10,70 26 70 09,70 26 70 19,98 24 48 99",ICB A/S,"Mortensgade 33, 9440 Aabybro",Not specified,,,http://www.icb.dk
Vikarbureauer,Mobil,,,"26 13 10 94,26 84 55 75,27 13 65 35,27 57 92 79",Konsulentfirmaet Vibeke Munk ApS,"Lynge Bygade 32, 3540 Lynge",Not specified,,,Company site unknown
Vikarbureauer,Fax,,,"38 38 11 60,75 54 32 43",Adecco Kolding,"Bredgade 32, 1. sal., 6000 Kolding",Not specified,,,http://www.adecco.dk
Vikarbureauer,Fax,,,"58 50 07 81,58 50 07 86,


    ,
                            ,
									,
								",Top Partners A/S,"Lindevej 2, 4200 Slagelse",Not specified,,,http://www.toppartners.dk
Vikarbureauer,Fax,,,"33 73 43 00,33 73 43 20",Access Personnel,"Nørre Voldgade 80, 1. sal., 1358 København K",Not specified,,,http://www.access-personnel.dk
Vikarbureauer,,,,,Dsp Gruppen A/S,"Søndergade 2, 9320 Hjallerup",Not specified,,,Company site unknown
Vikarbureauer,Tlf.,,,"60 70 75 85,45 70 75 85",Tip Top Service v/ Ali Nema,"Rørsangervej 13, 1. tv., 2400 København NV",Not specified,,,Company site unknown
Vikarbureauer,Mobil,,,"55 31 13 55,20 21 89 09,20 23 89 09,20 55 55 53",Profil Search v/ Kim Devantier,"Bakkekammen 4, Balle, 4735 Mern",Not specified,,,http://www.profilsearch.dk
Vikarbureauer,,,,,Svanborg &amp; HR Mæglerne,"Herman Bangsvej 17, 7000 Fredericia",Not specified,,,Company site unknown
Vikarbureauer,,,,60 77 22 01,Unidan ApS,"Stentoften 24, 7100 Vejle",Not specified,,,Company site unknown
Vikarbureauer,,,,27 89 67 24,Primavikar v/ Malgorzata Tekla Andreasen,"Egehegnet 98, 2850 Nærum",Not specified,,,Company site unknown
Vikarbureauer,,,,74 83 37 10,Agerskov Vikarbureau ApS,"Vellerupvej 32, 6534 Agerskov",Not specified,,,Company site unknown
Vikarbureauer,,,,39 30 31 61,Svaneborg-Pipe ApS,"Vestergaardsvej 18, 9690 Fjerritslev",Not specified,,,Company site unknown
Vikarbureauer,Mobil,,,"98 28 30 25,31 25 62 10",Laubek Vikarservice ApS,"Anemonevej 10, Klokkerholm, 9320 Hjallerup",Not specified,,,Company site unknown
Vikarbureauer,,,,61 66 55 27,Promann ApS,"Under Elmene 14 A, 2300 København S",Not specified,,,Company site unknown
Vikarbureauer,Mobil,,,"70 27 66 30,29 41 44 38",HK UDVIKLING &amp; VÆKST ApS og Jobvækst Danmark ApS,"Jupitervej 1, 6000 Kolding",Not specified,,,http://www.hkuv.dk
Vikarbureauer,Fax,,,"73 63 09 44,73 63 09 40",Temp-Team A/S,"Storegade 16, 1. sal., 6200 Aabenraa",Not specified,,,http://www.temp-team.dk
"Vagtbureauer,Vikarbureauer",Fax,,,"86 19 78 00,86 19 60 19","Fadls Vagtbureau, Århus A/S","Nørre Alle 32, 8000 Aarhus C",Not specified,,,http://www.fadl-vagt.dk
Vikarbureauer,Fax,,,"70 20 10 00,87 30 97 01",Manpower A/S,"Åboulevarden 22, 5. sal., 8000 Aarhus C",Not specified,,,http://www.manpower.dk
Vikarbureauer,Fax,,,"96 18 17 50,96 18 17 51",JKS A/S,"Toldbodgade 2, 1. sal., sal., 7700 Thisted",Not specified,,,http://www.jks.dk
Vikarbureauer,Tlf.,,,"70 26 26 34,70 26 26 94,70 26 26 94",Bpa Service Danmark Personale S.M.B.A.,"Hammerensgade 1, 2. sal., 1267 København K",Not specified,,,Company site unknown
Vikarbureauer,,,,40 96 21 55,Institut For Karriereudvikling A/S,"Frilandsvej 102, 1. sal., 9800 Hjørring",Not specified,,,Company site unknown
Vikarbureauer,,,,,Vikarformidlingen v/ Pernille Liland,"Taastrup Hovedgade 92, 2630 Taastrup",Not specified,,,Company site unknown
Vikarbureauer,,,,,Eren Vikargruppen ApS,"Herlev Hovedgade 119, 2730 Herlev",Not specified,,,Company site unknown
Vikarbureauer,Mobil,,,"48 71 14 94,21 25 64 94",Bruun Consulting v/ Tonny Bruun Nielsen,"Hyttegårdsvej 9, Ramløse, 3200 Helsinge",Not specified,,,Company site unknown
Vikarbureauer,,,,73 69 40 49,Kenneth Paulsen,"Hellevadvej 48, Mjøls, 6230 Rødekro",Not specified,,,Company site unknown
Vikarbureauer,,,,70 22 28 44,Salix ApS,"Islands Brygge 32 A, 2300 København S",Not specified,,,Company site unknown
Vikarbureauer,,,,61 60 35 91,CS-Vikar,"Brunde Vest 2, Brunde, 6230 Rødekro",Not specified,,,Company site unknown
Vikarbureauer,,,,99 17 26 22,"Jobhus, Nykøbing, arbejdsvederlag","Ringvejen 45, 7900 Nykøbing M",Not specified,,,Company site unknown
Vikarbureauer,,,,51 19 68 30,DDV Vikar og Hjemmeservice ApS,"Hasselvej 44, 2830 Virum",Not specified,,,Company site unknown
Vikarbureauer,Mobil,,,"86 87 75 60,23 90 05 60,26 11 57 23,27 84 24 99",IKA Vikarservice v/ Inga Kjærgård Andersen,"Allingskovgårdsvej 20, Grauballe, 8600 Silkeborg",Not specified,,,Company site unknown
Vikarbureauer,,,,28 94 58 07,B.C. Rådgivning og Vikarbureau ApS,"Agerstedvej 13, Sørå, 9340 Asaa",Not specified,,,Company site unknown
Vikarbureauer,Tlf.,,,"72 53 07 03,72 53 07 02",Aktiverings- og revacenter Faaborg,"Nyborgvej 58, 5600 Faaborg",Not specified,,,Company site unknown
Vikarbureauer,,,,,Hr Navigator ApS,"Smedebakken 14, 8600 Silkeborg",Not specified,,,Company site unknown
Vikarbureauer,Fax,,,"70 20 61 81,86 91 44 30","Teamvikaren.dk, Randers ApS","Haraldsvej 66, 8960 Randers SØ",Not specified,,,http://www.teamvikaren.dk
Vikarbureauer,,,,27 20 70 08,CPH Casting I/S,"Kattesundet 2 A, 1458 København K",Not specified,,,http://www.cphcasting.dk
Vikarbureauer,,,,75 19 55 62,Helle Vikarservice,"Hellevej 60, Helle, 6800 Varde",Not specified,,,Company site unknown
Vikarbureauer,Fax,,,"38 14 89 00,38 87 87 19",Backline Special Service ApS,"Bernhard Bangs Allé 39, 2000 Frederiksberg",Not specified,,,http://www.ihbc.dk
Vikarbureauer,Mobil,,,"74 42 50 95,30 34 35 03,74 42 24 73",Vircon Personalerådgivning &amp; - Udvikling ApS,"Kilen 29, 6200 Aabenraa",Not specified,,,http://www.vircon.dk
Vikarbureauer,,,,65 32 59 72,Schantz Engineering ApS,"Mesinge Mark 39, 5370 Mesinge",Not specified,,,Company site unknown
"Vikarbureauer,Cykelforretninger",,,,41 29 38 90,"Vili Nielsen, Alex","Møllevej 26, Fløng, 2640 Hedehusene",Not specified,,,Company site unknown
Vikarbureauer,Tlf.,,,"75 53 83 00,75 14 10 15",Jobcenter Kolding,"Skovvangen 42, Kolding Storcenter, 6000 Kolding",Not specified,,,Company site unknown
Vikarbureauer,Fax,,,"70 27 37 47,70 27 37 46,


    ,
                            ",Poolia Danmark A/S,"Langebrogade 5, 1411 København K",Not specified,,,http://www.poolia.dk
Vikarbureauer,Tlf.,,,"86 13 24 44,86 76 39 65,22 68 15 25,86 13 24 49",ActivCare A/S,"Nørre Alle 70 G, 8000 Aarhus C",Not specified,,,http://www.activcare.dk
"Vikarbureauer,VVS-installatører",Fax,,,"45 20 19 00,45 20 19 01,


    ,
                            ",Nordisk Håndværk ApS,"Bagsværdvej 84, 2800 Kgs. Lyngby",Not specified,,,http://www.nh-aps.com
Vikarbureauer,,,,,Ak Vikar,"Borgergade 39, 9362 Gandrup",Not specified,,,Company site unknown
Vikarbureauer,Tlf.,,,"70 26 23 22,70 26 23 28,51 37 33 19,70 26 23 21",Ready2care ApS,"Tølløsevej 294, Minnislyst, 4350 Ugerløse",Not specified,,,http://www.ready2care.dk
Vikarbureauer,,,,40 19 78 11,Nurse Partner Danmark A/S,"Nørre Farimagsgade 11, 1364 København K",Not specified,,,Company site unknown
Vikarbureauer,,,,41 11 69 38,Vikarbureauet Danmark ApS,"Gl. Vordingborgvej 4, 4772 Langebæk",Not specified,,,Company site unknown
Vikarbureauer,,,,61 79 47 94,Lej En Bartender I/S,"Knolden 13 B, Himmelev, 4000 Roskilde",Not specified,,,http://www.lejenbartender.dk
Vikarbureauer,,,,,Baastad Human Resources ApS,"Ådalsparken 23, 6710 Esbjerg V",Not specified,,,Company site unknown
Vikarbureauer,,,,,Jobcenter Århus-Samsø,"Møllebakkevej 2, Tranebjerg, 8305 Samsø",Not specified,,,Company site unknown
Vikarbureauer,Mobil,,,"98 24 36 16,28 35 06 01,28 35 06 02,28 35 06 03",Vestervang Data &amp; Teknik,"Kanalvej 79, Birkelse, 9440 Aabybro",Not specified,,,http://www.vestervangteknik.dk
Vikarbureauer,Mobil,,,"55 99 22 11,23 28 09 68,29 42 50 25,30 53 09 45",Gisp Denmark ApS,"Kastaniegårdsvej 41, Ejby, 4623 Lille Skensved",Not specified,,,Company site unknown
Vikarbureauer,Fax,,,"70 20 90 43,70 20 90 47",Viktech ApS,"Grenåvej 425, 8250 Egå",Not specified,,,http://www.viktech.dk
Vikarbureauer,,,,20 49 41 92,Esther Verlaan,"Arnåvej 9, Vester Højst, 6240 Løgumkloster",Not specified,,,Company site unknown
Vikarbureauer,Fax,,,"39 68 23 24,33 32 60 82",Jtf ApS,"Ræveskovsvej 3 B, 2820 Gentofte",Not specified,,,Company site unknown
Vikarbureauer,Mobil,,,"35 11 14 15,61 70 41 73",VikarTeam-Nord v/ Annika Engelhardt Christensen,"Dr Mølle Strandvej 661, 3120 Dronningmølle",Not specified,,,Company site unknown
Vikarbureauer,,,,61 66 99 73,Mustapha Labrouzi,"Hostrups Have 1, 1954 Frederiksberg C",Not specified,,,Company site unknown
Vikarbureauer,,,,44 92 50 30,Sundvikar ApS Skovlunde,"Birthevej 1, 2740 Skovlunde",Not specified,,,Company site unknown
Vikarbureauer,Mobil,,,"96 19 39 18,24 86 39 18",Madsbøll v/ Per Madsbøll Pedersen,"Norgesvej 64, Tingstrup, 7700 Thisted",Not specified,,,Company site unknown
Vikarbureauer,Fax,,,"45 87 04 87,45 28 19 19",ABSOLUT Personaleservice,"Firskovvej 6, 2800 Kgs. Lyngby",Not specified,,,http://www.absolut-personaleservice.dk
Vikarbureauer,,,,43 90 38 76,Inger Claesen ApS,"Blågårdsparken 10, 2670 Greve",Not specified,,,Company site unknown
Vikarbureauer,,,,,Valby Multi Service ApS,"Peter Sabroes Gade 16, st. tv., 2450 København SV",Not specified,,,Company site unknown
Vikarbureauer,Mobil,,,"57 53 81 04,22 56 24 81",Tue Care ApS,"Artilleristen 24 B, 4100 Ringsted",Not specified,,,http://www.tuecare.dk
Vikarbureauer,,,,,Stageconsult v/ Niels Stage,"Ordrupvej 101, 4. sal., 2920 Charlottenlund",Not specified,,,Company site unknown
Vikarbureauer,Fax,,,"65 31 15 81,65 30 15 91",Witzel Vikarservice,"Kongegade 23, 2. sal., 5800 Nyborg",Not specified,,,http://www.witzel-vikar.dk
Vikarbureauer,Tlf.,,,"70 23 00 71,70 23 00 77",Mandskabskontoret ApS,"Vesterlundvej 13, 2730 Herlev",Not specified,,,Company site unknown
Vikarbureauer,Tlf.,,,"50 88 12 39,66 61 20 30",Hr Larsens Produktions Kompagni Jens Christian Larsen,"Odensevej 121, Skallebølle, 5492 Vissenbjerg",Not specified,,,Company site unknown
Vikarbureauer,,,,88 18 58 18,Hjemmeservicesyd ApS,"Høllevang 141, 6520 Toftlund",Not specified,,,http://www.landbrugsvikarsyd.dk
Vikarbureauer,Tlf.,,,"59 44 64 97,21 42 12 75",HR-Vikarer v/ Rene Rusborg,"Østervang 4 B, 4300 Holbæk",Not specified,,,Company site unknown
Vikarbureauer,,,,38 80 57 00,Mattak International v/ Per Rasmussen,"Ruten 153, 1. sal., 2700 Brønshøj",Not specified,,,Company site unknown
Vikarbureauer,Mobil,,,"66 14 14 36,29 28 14 36",Tolstrup Headhunting A/S,"Chr. Richardts Vej 26 A, 5230 Odense M",Not specified,,,Company site unknown
Vikarbureauer,Fax,,,"61 27 74 11,98 16 46 08",AM Svejse og Vikar Service,"Hobrovej 317 A, 9200 Aalborg SV",Not specified,,,http://www.smedaalborg.dk
Vikarbureauer,Fax,,,"70 22 28 43,43 54 28 44,70 22 28 44,


    ,
                            ",Propincus A/S,"Skoleholmen 19, 2670 Greve",Not specified,,,http://www.salix.dk
Vikarbureauer,Fax,,,"70 25 77 25,70 27 40 40",Danstaff,"Københavnsvej 335, 4000 Roskilde",Not specified,,,http://www.scan-staff.dk
Vikarbureauer,Mobil,,,"75 83 35 04,28 72 35 04,61 35 68 27,75 82 35 04",NIKA Int. Recruiting Agency v/ Nikita G. Peter…,"Grønnegade 34, 2. tv., 7100 Vejle",Not specified,,,http://www.nikaagency.com
Vikarbureauer,,,,,Solsen Vikarservice v/ Susanne Boje Olsen,"Søvejen 28, Blegind, 8362 Hørning",Not specified,,,Company site unknown
Vikarbureauer,Mobil,,,"50 52 30 10,40 10 02 20",Jobfee ApS,"Tingvej 19, Vindinge, 4000 Roskilde",Not specified,,,Company site unknown
Vikarbureauer,Mobil,,,"45 86 88 90,24 65 85 90",BB Consulting v/ Bent Bilde Jensen,"Kirstineparken 45, 2970 Hørsholm",Not specified,,,Company site unknown
Vikarbureauer,,,,,Wittrock Consult ApS,"Bernstorffsvej 69 A, 2. tv., 2900 Hellerup",Not specified,,,Company site unknown
Vikarbureauer,,,,,Gammelgaards Svejseservice ApS,"Fabriksvej 15, 6650 Brørup",Not specified,,,Company site unknown
Vikarbureauer,Fax,,,"63 14 02 40,63 14 02 41,
									,
								",Vikargruppen Danmark,"Kongensgade 54, 2. sal., 5000 Odense C",Not specified,,,http://www.vgd.dk
Vikarbureauer,Mobil,,,"97 91 21 12,20 49 26 06",Pilgaards Service /Claus Pilgaard,"Stensagervej 12, Tingstrup, 7700 Thisted",Not specified,,,Company site unknown
Vikarbureauer,Mobil,,,"75 57 26 60,24 46 15 06,27 12 53 56,27 50 67 66",Termansen VikarBureau v/ Jesper Termansen,"Vesterskovvej 20, Binderup, 6091 Bjert",Not specified,,,Company site unknown
Vikarbureauer,,,,,Tmn Crew ApS,"Tangbjergvej 25, 3650 Ølstykke",Not specified,,,Company site unknown
Vikarbureauer,,,,,Staff Services ApS,"Stubberup Byvej 32, 4540 Fårevejle",Not specified,,,Company site unknown
Vikarbureauer,,,,53 11 32 60,C - Company ApS,"Gammelgårdsvej 73, 1. sal., 3520 Farum",Not specified,,,Company site unknown
"Handymænd,Vikarbureauer",Mobil,,,"30 24 06 00,30 24 38 36",Mand &amp; Bil,"Damhusvej 66, 5000 Odense C",Not specified,,,http://www.mandogbil.dk
Vikarbureauer,Fax,,,"98 65 86 11,98 65 86 25",JOBDK Aars,"Himmerlandsgade 49, 1. sal., 9600 Aars",Not specified,,,http://www.jobdk.dk
Vikarbureauer,Mobil,,,"33 36 09 44,40 15 29 70,33 36 09 20",Temp-Team A/S,"Hauser Plads 20, 5. sal., 1127 København K",Not specified,,,http://www.temp-team.dk
Vikarbureauer,Fax,,,"27 25 23 02,27 25 23 03",MCMi v/ Marq Naalleiyeh Omar,"Nyholms Alle 30, 2610 Rødovre",Not specified,,,Company site unknown
Vikarbureauer,Fax,,,"35 29 41 91,35 29 41 92",Dit Service Team ApS,"Pelargonievej 1, 2000 Frederiksberg",Not specified,,,http://www.ditserviceteam.dk
Vikarbureauer,,,,27 15 13 18,Paraplus v/ Lisbeth Amanda Mærsk Asmussen,"Broholmparken 28, 7430 Ikast",Not specified,,,Company site unknown
Vikarbureauer,,,,96 60 00 13,Pro &amp; Co Odense ApS,"Rugårdsvej 55, 5000 Odense C",Not specified,,,Company site unknown
Vikarbureauer,,,,26 78 35 28,Developman ApS,"Holmgaardsvej 5, Karlby, 9500 Hobro",Not specified,,,Company site unknown
Vikarbureauer,Fax,,,"75 45 20 20,75 18 19 64",JobTeam A/S,"Skolegade 7, 6700 Esbjerg",Not specified,,,http://www.jobteam.dk
Vikarbureauer,Fax,,,"88 13 61 36,70 14 13 63",Execute.dk Holding ApS,"H. C. Ørsteds Vej 50, 1879 Frederiksberg C",Not specified,,,Company site unknown
Vikarbureauer,,,,29 25 24 88,FUN &amp; WORK v/ Brian Mogensen,"Adelgade 18, st. th., 8700 Horsens",Not specified,,,Company site unknown
Vikarbureauer,Fax,,,"38 38 11 80,86 19 86 60,


    ,
                            ",Adecco Århus,"Åboulevarden 70, 2. sal., 8000 Aarhus C",Not specified,,,http://www.adecco.dk
Vikarbureauer,,,,20 86 95 43,Søholt Trading,"Bastrup Skovvej 13 A, 6580 Vamdrup",Not specified,,,Company site unknown
Vikarbureauer,Mobil,,,"44 84 18 10,20 25 33 25",BVS Gruppen,"Naverland 34, 2600 Glostrup",Not specified,,,http://www.bvsgruppen.dk
Vikarbureauer,,,,88 73 73 33,Arbeitskraft.dk ApS,"Jernbanegade 1, 4760 Vordingborg",Not specified,,,Company site unknown
Vikarbureauer,,,,72 27 90 00,Brand Support Sweden Kommandibolag,"Lautrupbjerg 6, 2750 Ballerup",Not specified,,,Company site unknown
Vikarbureauer,Fax,,,"87 11 99 86,87 11 99 89",Damatech ApS,"Messingvej 54, 8940 Randers SV",Not specified,,,http://www.damatech.dk
Vikarbureauer,,,,74 52 44 55,capacent- institut for karriereudvikling A/S,"Storegade 11 B, 1. sal., 6100 Haderslev",Not specified,,,Company site unknown
Vikarbureauer,Fax,,,"55 77 63 02,59 51 70 44",Foldmand Vikar,"Sct. Mortens Gade 6, 4700 Næstved",Not specified,,,http://www.foldmand.dk
Vikarbureauer,Fax,,,"70 12 12 04,76 25 32 41,


    ,
                            ",Jysk Vikarservice ApS,"Skolegade 2, 8600 Silkeborg",Not specified,,,http://www.jyskvikarservice.dk
Vikarbureauer,,,,,"Konsulenthuset Ballisager, Hillerød","Møllestræde 6, 1. sal., 3400 Hillerød",Not specified,,,Company site unknown
Vikarbureauer,Tlf.,,,"87 22 20 90,87 22 20 00,87 22 20 91",Piu-Sekretariatet Silkeborg Handelsskole,"Markedsgade 3, 8600 Silkeborg",Not specified,,,Company site unknown
Vikarbureauer,Tlf.,,,"74 47 22 47,30 51 22 47,30 51 22 47",Work-in-Denmark v/ Ewa Maria Martens,"Sørens Møllevej 21, Asserballeskov, 6440 Augustenborg",Not specified,,,Company site unknown
Vikarbureauer,,,,50 67 16 60,Skandoktor Executive I/S,"Oscar Pettifords Vej 15, 2. tv., 2450 København SV",Not specified,,,Company site unknown
Vikarbureauer,,,,,Winbergs Vikarservice v/ Bjørn Winberg,"Nørremosevej 9, Lindeskov, 5853 Ørbæk",Not specified,,,Company site unknown
Vikarbureauer,,,,55 45 66 17,Pers Multi Service,"Kvislemarkvej 12, Kvislemark, 4262 Sandved",Not specified,,,Company site unknown
Vikarbureauer,,,,64 74 67 21,Job- og kompetencecenteret,"Fredensvej 25, 5620 Glamsbjerg",Not specified,,,Company site unknown
Vikarbureauer,Tlf.,,,"75 94 16 11,75 94 16 01",Eum International ApS,"Snaremosevej 21 F, Erritsø, 7000 Fredericia",Not specified,,,Company site unknown
Vikarbureauer,,,,50 16 03 72,Boguslaw Waldemar Rys,"Birkedommervej 23, 2400 København NV",Not specified,,,Company site unknown
Vikarbureauer,,,,50 81 02 61,Det Pædagogiske Korps ApS,"Dalinsvej 30, 8920 Randers NV",Not specified,,,Company site unknown
Vikarbureauer,,,,,Institut For Karriereudvikling A/S,"Vestergade 13, 1. sal., 7700 Thisted",Not specified,,,Company site unknown
Vikarbureauer,Tlf.,,,"20 70 01 06,45 70 01 06,20 70 01 04,20 70 01 06",Zebra Transport &amp; Vikar ApS,"Maglehøjvej 38, 3650 Ølstykke",Not specified,,,Company site unknown
Vikarbureauer,Fax,,,"56 14 99 00,56 14 06 40,


    ,
                            ",IP Regnskab Administration &amp; Personale ApS,"Solrød Center 56 - 58, 1. sal., 2680 Solrød Strand",Not specified,,,http://www.ipregnskab.dk
Vikarbureauer,Mobil,,,"64 40 63 82,61 37 46 32,64 40 63 82",Henrik Faurholt Contracting/HFC,"Håstrupgårdsvej 4, Håstrup, 7000 Fredericia",Not specified,,,Company site unknown
