category,phone_type,description_headers,tags,phone,company_name,address,short_description,description_paragraphs,gen_description,company_site_url
Vikarbureauer,Fax,,Vikarbureauer###Hjemmepleje,62 22 56 94,Xvikar ApS,"Rømerparken 10, 5700 Svendborg",Not specified,,,http://www.xvikar.dk
Vikarbureauer,Fax,,Vikarbureauer###Human Resource-konsulenter###Assistance###Fastansættelser###Personalerekrutering,57 61 51 35,Assistance Personaleservice a/s,"Torvet 1, 4100 Ringsted",Not specified,,,http://www.assistance.dk
Vikarbureauer,Fax,,Vikarbureauer###Human Resource-konsulenter###Assistance###Fastansættelser###Personalerekrutering,63 11 89 09,Assistance Personaleservice a/s,"Mageløs 7, 5000 Odense C",Not specified,,,http://www.assistance.dk
Vikarbureauer,Fax,,Vikarbureauer###Human Resource-konsulenter###Assistance###Personalerekrutering###Fastansættelser,86 55 07 92,Assistance Personaleservice a/s,"Viby Ringvej 5 - 11, 3. tv., 8260 Viby J",Not specified,,,http://www.assistance.dk
Vikarbureauer,Fax,,Vikarbureauer###Human Resource-konsulenter###Assistance###Fastansættelser###Personalerekrutering,75 52 85 33,Assistance Personaleservice a/s,"Jernbanegade 2, 1. sal., 6000 Kolding",Not specified,,,http://www.assistance.dk
Vikarbureauer,Mobil,,Vikarfirmaer###Vikarbureau###Erhvervsrengøring###Rengøring###Vikar###Vikarservice,20 33 59 19,Vikarservice MidtJylland,"Majsmarken 1, 7190 Billund","Med vores dygtige vikarer/serviceasistenter har du altid ekstra hænder lige ved hånden. Det er enkelt, der er ingen spildtid, personaleadministration eller unødige udgifter, og som kunde hos os betaler du alene for de effektive timer. Intet andet. D…",,,http://www.vikarservice.com
"Elinstallatører,Vikarbureauer,Elektrikere",,,Elinstallationer###Elarbejde###Elinstallatører###El###Alarm###Energi,,AT Installation,"Maltvej 13, 4760 Vordingborg",AT Installation varetager mange former for el-entrepriser i såvel private som erhvervsmæssige sammenhænge. Som autoriseret El-installatør udfører vi flere former for el-installationsopgaver og renoveringsopgaver. Har du spørgsmål eller ønsker du et …,,,Company site unknown
Vikarbureauer,,,"Truckfører###Truckførervikarer###Håndværkervikarer###Vikarer, bygge og anlæg###Maskinførere",,Preben Ovesen,"Kystvejen 45, 8000 Aarhus C","Vikarbureau med speciale i kørsel og betjening af: Gaffeltruck og Gummiged. Har desuden nogen erfaring med andre maskiner. Er fleksibel og imødekommend overfor nyt og har kørekort til forvogn/hænger, førerkort og farligt-gods-bevis. Ren straffeattes…",,,http://www.prebenovesen.dk
Vikarbureauer,,,Rengøringsselskaber###Hjemmehjælp###Hjemmeservice###Vikarbureau###Vikarservice,,Here2care,"Guldagervej 72, 1. sal., Guldager, 6710 Esbjerg V",Here2Care servicerer offentlige og private institutioner med veluddannede vikarer inden for: Sygeplejersker - Social- og - sundhedsassistenter - Social- og sundhedshjælpere - Sygeplejerskestuderende. Her på siden præsenterer vi de værdier og princip…,,,http://www.here2care.dk
Vikarbureauer,Fax,,Vikarbureauer###Vikarformidling###Vikarer###Rekrutteringsfirmaer###SKI-leverandører,39 69 15 89,Personalegruppen A/S,"Niels Bohrs Alle 2 A, 2860 Søborg","Vi forstår behovene i den primære sundhedssektor - og har mange års erfaring med at opfylde dem. Vi er hurtige til at levere vikarer, og vores vikarer er ikke hvem som helst. Alle i korpset er faguddannede inden for ældrepleje eller sygepleje, &amp; all…",,,http://www.personalegruppen.dk
Vikarbureauer,Mobil,,Rekrutteringsfirmaer###Rekruttering###Vikarservice###Vikararbejde###Vikarer,52 40 11 90,VikarCompagniet,"Køgevej 230, 4621 Gadstrup","Vi hjælper dig med rekruttering og vikarassistance hvad enten det drejer sig om en person en dag eller mange personer i mange dage. Vi har mange års erfaring, og tilbyder vikarer her og nu, dag og nat, indenfor lager, logistik, produktion samt gener…",,,http://www.vikar-compagniet.dk
Vikarbureauer,Mobil,,Staldrengøring###Vikarbureauer,20 72 79 27,K. P. Afløsning,"Ålborgvej 21, Knudstrup, 8620 Kjellerup",K.P. Afløsning er et vikarbureau med stor erfaring indenfor landbrug og staldrengøring. Gi´ mig et kald - hvis du skal have vasket din stald.,,,Company site unknown
Vikarbureauer,,,Vikarbureauer###Sundhedspersonale,,Vikarbureau Bornholm ApS,"Sigurdsgade 14, 3700 Rønne","Initiativtagerne til Vikarbureau Bornholm er Thomas Krogh Hansen og Jesper Staustrup. Vi har taget dette initiativ, da vi som sygeplejersker har erfaret, at Bornholm som andre steder i landet, har brug for sundhedsfagligt personale som hurtigt kan t…",,,http://www.vikarbureaubornholm.dk
Vikarbureauer,,,Rekrutteringsbureauer###Vikarbureauer,,VikarBørsen Århus,"Skolebakken 7, 8000 Aarhus C",Not specified,,,http://www.vikarborsen.dk
Vikarbureauer,Fax,"Vikarer, 24 timers service",Vikarbureauer###Personalerekruttering,76 25 32 41,Jysk Vikarservice ApS,"Sundvej 9, 8700 Horsens",Not specified,Vi leverer vikarløsninger til det danske erhvervsliv og har idag 10 afdelinger. Vi har døgnvagt - ring 70121204,,http://www.jyskvikarservice.dk
Vikarbureauer,Fax,Rekrutteringsbureauer,"Personalerekrutering###Forsikringsjob, vikarer###IT-job, vikar###Rejsebranchen, job###Administration, vikarjob",33 24 44 91,Centrum Personale A/S,"Frederiksberg Allé 35, 1820 Frederiksberg C",Centrum Personale har i mere end 20 år fungeret som professionel samarbejdspartner for et bredt udsnit af dansk erhvervsliv. Vi rekrutterer til alle jobfunktioner og alle stillingsniveauer - lige fra receptionisten til økonomichefen. I Centrum Perso…,I Centrum Personale rekrutterer vi til alle jobfunktioner og alle stillingsniveauer - lige fra receptionisten til økonomichefen. Vi har i mere end 20 år fungeret som professionel samarbejdspartner for et bredt udsnit af dansk erhvervsliv. I Centrum Personale har vi fokus på at skabe og fastholde gode og seriøse samarbejdsrelationer med såvel vores kunder som kandidater.,,http://www.centrum-personale.dk
Vikarbureauer,,Rengøring,Hjemmeservice###Rengøringsselskaber###Hovedrengøring###Vikarjob###Vikarbureauer,,Vikar Flexible,"Sundbrovej 21, Tåsinge, 5700 Svendborg","Vikar Flexible tilbyder sin arbejdskraft til dig, som mangler en medarbejder f.eks. i forbindelse med sygdom, barsel eller ferie Vikar Flexible tilbyder sin arbejdskraft til dig, som har brug for hjælp i ganske få timer af gangen. Vikar Flexible til…","Vikar Flexible tilbyder sin arbejdskraft til dig, som mangler en medarbejder f.eks. i forbindelse med sygdom, barsel eller ferieVikar Flexible tilbyder sin arbejdskraft til dig, som har brug for hjælp i ganske få timer af gangen. Vikar Flexible tilbyder også sin arbejdskraft på tidspunkter, hvor alle andre holder fri. Kort fortalt, Vikar Flexible træder til, når alle andre svigter, døgnets 24 timer alle ugens dage.",,http://www.vikarflexible.dk
Vikarbureauer,Mobil,,Vikarjob###Personalerekruttering###Karrierekvinder###Head-Hunting###Bestyrelseskandidater###Ingeniører###Kvindelige bestyrelseskandidater###Barselsvikarer###Salgssekretærer###Kvindelige ledere###Direktører###Emnebank###Chefsekretærkurser###Ledere,"21 49 35 15,
									,
								,
									,
								",Sekretær Service/Leder Service Aase Hoeck,"Enebærvej 51, 8240 Risskov","Aase Hoeck har siden 1988 udvalgt direktører, salgs- og økonomichefer, regnskabsmedarbejdere chef- og direktionssekretærer fra landsdækkende emnebank med personligt interviewede kandidater med kontor i København og Århus. Speciale: Kvindelige ledere…",,,http://www.karrierekvinder.dk
Vikarbureauer,Fax,,Personalerekruttering###Vikarbureauer,33 33 73 10,Vikarbureauet Klostergaarden,"Magstræde 5, 1204 København K",Not specified,,,http://www.klostergaarden.dk
Vikarbureauer,Fax,Vikarbureauer###Vikarjob,"Personalerekruttering###Vikarformidling###Rekrutteringssparring###Advokatsekretærer, vikarjob###Sagsbehandlere, vikarjob###Sprogsekretærer, vikarjob###Translatører, vikarjob###Regnskabsmedarbejdere###Receptionister, vikarjob###Administration, vikarjob",70 14 15 93,ServiceBureau ApS,"Studsgade 44, 8000 Aarhus C","Fokus på dig - er hele succesen bag ServiceBureau, som efterhånden har eksisteret i mere end 20 år. Vi er et vikar- og rekrutteringsbureau, som startede ud med at være advokatbranchens foretrukne personaleleverandør. Gennem de sidste mange år er vi …","Fokus på dig - er hele succesen bag ServiceBureau, som efterhånden har eksisteret i mere end 20 år. Vi er et vikar- og rekrutteringsbureau, som startede ud med at være advokatbranchens foretrukne personaleleverandør. Gennem de sidste mange år er vi ligeledes blevet en værdig og respekteret medspiller inden for alle former for administrative stillinger. Vi håndterer i dag flere og flere personaleopgaver primært i Storkøbenhavn og Århus - både i og uden for advokatbranchen.###Fokus på dig - er hele succesen bag ServiceBureau, som efterhånden har eksisteret i mere end 20 år. Vi er et vikar- og rekrutteringsbureau, som startede ud med at være advokatbranchens foretrukne personaleleverandør. Gennem de sidste mange år er vi ligeledes blevet en værdig og respekteret medspiller inden for alle former for administrative stillinger. Vi håndterer i dag flere og flere personaleopgaver primært i Storkøbenhavn og Århus - både i og uden for advokatbranchen.",Vores fagområder er:###- Advokatsekretærer###- Sagsbehandlere###- Sprogsekretærer###- Translatører###- Regnskabsmedarbejdere###- Receptionister###- Administration / Personlig assistent###Kendetegnede styrker ved et samarbejde med os er:###- Den personlige kontakt###- Effektivitet krydret med humor###- Opdaterede og relevante kandidater###- Store krav til vore kandidater###- Kort vej til chefen###Vi er både medlem af Dansk Erhverv og Foreningen af Vikarbureauer i Danmark - FVD.,http://www.servicebureau.dk
Vikarbureauer,Fax,Personalerekruttering###Vikarbureauer,"Administration###Kontorer###Kontormedarbejdere###Oversættelser###Personale###Receptionister, vikarjob###Regnskabsmedarbejdere###Økonomimedarbejdere###Lønregnskaber###Vikarformidling",70 14 13 63,Execute.dk,"H. C. Ørsteds Vej 50 C, 1879 Frederiksberg C","Hos execute.dk tror vi på kontrolleret vækst. Det betyder, at vi i dag består af et kompetent team af loyale og engagerede medarbejdere, der til sammen udgør en bred vifte af både faglige og sociale kompetencer. Vi forstår at supplere hinanden, så v…","Hos execute.dk tror vi på kontrolleret vækst. Det betyder, at vi i dag består af et kompetent team af loyale og engagerede medarbejdere, der til sammen udgør en bred vifte af både faglige og sociale kompetencer. Vi forstår at supplere hinanden, så vi kan tilbyde både kunder og medarbejdere en unik helhedsoplevelse.###Hos execute.dk tror vi på kontrolleret vækst. Det betyder, at vi i dag består af et kompetent team af loyale og engagerede medarbejdere, der til sammen udgør en bred vifte af både faglige og sociale kompetencer. Vi forstår at supplere hinanden, så vi kan tilbyde både kunder og medarbejdere en unik helhedsoplevelse.","Nordisk rekruttering - global service###- Vikariater og rekrutteringer###- Studentermedarbejdere###- International rekrutteringsservice###execute.dk er en professionel vikar- og rekrutteringsvirksomhed, der leverer veluddannede nordiske talenter inden for salg og administration til det globale erhvervsliv.###Under Business Services tilbyder vi outsourcing inden for fx###- Ledelse og bemanding af hele funktioner###- Løn- og Personaleadministration###- Analyse og dataindsamling###- Oversættelse og korrekturlæsning###og til messer og kongresser tilbyder vi###- Værter og værtinder###- Registrerings- og servicespersonale###execute.dk har fokus på mennesker der kan og vil flytte sig - fagligt, mentalt og geografisk.###Hos excute.dk tror vi på kontrolleret vækst.",http://www.execute.dk
Vikarbureauer,Fax,,Personalerekruttering###Freelance opgaver###Freelance designere###Freelance teknikere###Freelancejobs###Teknikere###Freelancebureauer###Lønmodtagere###Freelance service###Konsulentopgaver,33 43 66 77,Teknik &amp; Design Freelancebureau A/S,"Nørre Voldgade 12, 1358 København K",Hos Teknik &amp; Design kan du udføre dine projekt-opgaver som lønmodtager og derved bevare din dagpengeret ! Du kan overlade det administrative besvær til os og koncentrere dig om det sjove ! Brug Teknik &amp; Design som springbræt til selvstændig virksomh…,,"Teknisk Landsforbund oprettede freelancebureauet i 1992 som et selvstændigt aktieselskab med det formål at hjælpe freelancere med administration af opgaver.###Direktør: Jørgen Stender.###Som freelancer kan du få###- Aflevere opgaver og slippe for besværet med administration i almindelighed og momsregnskab i særdeleshed.###- Ideer og vejledning###Hvis du bruger Teknik og Design ansættes du som lønmodtager i bureauet, mens opgaven udføres. Det betyder at du###- Bevarer rettigheden til dagpenge under ledighed og###- Sikres løn under sygdom, indtil 14 dage.###- Er sikker på at få din løn, uanset om kunden betaler til tiden eller ej.",http://www.teknikogdesign.dk
Vikarbureauer,Fax,,Vikarbureauer###Personalerekruttering###Human Resource-konsulenter###Fastansættelser###Assistance,33 79 55 90,Assistance,"Lindevangs Allé 3, 2000 Frederiksberg",Not specified,,,http://www.assistance.dk
Vikarbureauer,Fax,Outsourcing###Vikarbureauer###Profilannonce,Coaching###Erhvervscoaching###Erhvervspsykologer###Erhvervspsykologisk rådgivning###Executive coaching###Genplacering###Gruppecoaching###HR-konsulenter###Human resource management###Human Resource-konsulenter###Human resources###Individuel Coaching###Jobhjælp###Jobrekruttering###Jobsøgning###Karriererådgivning###Karriereudvikling###Kompetenceafdækning###Kompetenceafklaring###Kompetencespotting###Kompetenceudvikling###Konsulenter###Ledelse###Lederrekruttering###Lederudvikling###Opsigelser###Outplacement###Personalerekruttering###Personalerådgivning###Personaleudvikling###Psykologisk testning###Rekrutteringer###Rådgivende virksomheder###Search &amp; selection###Stresscoaching###Virksomhedsledelseskonsulenter###Virksomhedsrådgivere###Virksomhedsrådgivning###Virksomhedsudvikling###Vikarformidling###Newplacement,72 17 44 69,Hartmanns A/S,"Nørrebrogade 22 - 26, 8000 Aarhus C","Afdelinger i hele Danmark. Arbejder med vikarassistance og rekruttering i det danske erhvervsliv. Vi har en række HR-produkter bl.a. newplacement, klimamålinger og interviewteknikkurser. Outsourcing af HR og økonomi, bla. Et bredt netværk .","Hartmanns Outsourcing er din samarbejds- og sparringspartner, og tillid bliver vægtet meget højt. Opgaven bliver defineret i samarbejde med dig, og løsningen tilpasset dine behov - efter dine procedurer og systemer.###Du bestemmer selv, hvor, hvornår og hvor meget du vil arbejde. Hartmanns sammensætter vikariater, som matcher dine ønsker, behov og kvalifikationer. Hartmanns fungerer som din arbejdsgiver og betaler din løn, feriepenge mv.###Afdelinger i hele Danmark. Arbejder med vikarassistance og rekruttering i det danske erhvervsliv. Vi har en række HR-produkter bl.a. newplacement, klimamålinger og interviewteknikkurser. Outsourcing af HR og økonomi, bla. Et bredt netværk .","Hartmanns er et dynamisk og stærkt ekspanderende konsulenthus med afdelinger i hele Danmark. Siden 1996 har vi arbejdet bredt med vikarassistance og rekruttering i det danske erhvervsliv. Ved siden af tilbyder vi en række HR-produkter bl.a. newplacement, klimamålinger og interviewteknikkurser.###Herudover har vi siden 2003 arbejdet med Anden Aktør-opgaver inden for matchgruppe 1 - 5 og har flere igangværende kontrakter med kommuner og jobcentre landet over.###Siden April 2006 har Hartmanns arbejdet med socialrådgivervikarer til jobcentre og kommuner. Derudover løser socialrådgiverforretningen opgaver inden for socialfaglig bistand, rekruttering og Newplacement.",http://www.hartmanns.dk
Vikarbureauer,Fax,Outsourcing###Vikarbureauer###Profilannonce,Personalerekruttering###Coaching###Erhvervscoaching###Erhvervspsykologer###Erhvervspsykologisk rådgivning###Executive coaching###Genplacering###Gruppecoaching###HR-konsulenter###Human resource management###Human Resource-konsulenter###Human resources###Individuel Coaching###Jobhjælp###Jobrekruttering###Jobsøgning###Karriererådgivning###Karriereudvikling###Kompetenceafdækning###Kompetenceafklaring###Kompetencespotting###Kompetenceudvikling###Konsulenter###Ledelse###Lederrekruttering###Lederudvikling###Opsigelser###Outplacement###Personalerådgivning###Personaleudvikling###Psykologisk testning###Rekrutteringer###Rådgivende virksomheder###Search &amp; selection###Stresscoaching###Virksomhedsledelseskonsulenter###Virksomhedsrådgivere###Virksomhedsrådgivning###Virksomhedsudvikling###Vikarformidling###Newplacement,72 17 44 61,Hartmanns A/S,"Frederiksborggade 18, 4. sal., 1360 København K","Afdelinger i hele Danmark. Arbejder med vikarassistance og rekruttering i det danske erhvervsliv. Vi har en række HR-produkter bl.a. newplacement, klimamålinger og interviewteknikkurser. Outsourcing af HR og økonomi, bla. Et bredt netværk.","Hartmanns Outsourcing er din samarbejds- og sparringspartner, og tillid bliver vægtet meget højt. Opgaven bliver defineret i samarbejde med dig, og løsningen tilpasset dine behov - efter dine procedurer og systemer.###Du bestemmer selv, hvor, hvornår og hvor meget du vil arbejde. Hartmanns sammensætter vikariater, som matcher dine ønsker, behov og kvalifikationer. Hartmanns fungerer som din arbejdsgiver og betaler din løn, feriepenge mv.###Afdelinger i hele Danmark. Arbejder med vikarassistance og rekruttering i det danske erhvervsliv. Vi har en række HR-produkter bl.a. newplacement, klimamålinger og interviewteknikkurser. Outsourcing af HR og økonomi, bla. Et bredt netværk.","Hartmanns er et dynamisk og stærkt ekspanderende konsulenthus med afdelinger i hele Danmark. Siden 1996 har vi arbejdet bredt med vikarassistance og rekruttering i det danske erhvervsliv. Ved siden af tilbyder vi en række HR-produkter bl.a. newplacement, klimamålinger og interviewteknikkurser.###Herudover har vi siden 2003 arbejdet med Anden Aktør-opgaver inden for matchgruppe 1 -5 og har flere igangværende kontrakter med kommuner og jobcentre landet over.###Siden April 2006 har Hartmanns arbejdet med socialrådgivervikarer til jobcentre og kommuner. Derudover løser socialrådgiverforretningen opgaver inden for socialfaglig bistand, rekruttering og Newplacement.",http://www.hartmanns.dk
Vikarbureauer,Fax,Vikarbureauer###Vikarformidling,"Vikararbejde###Lærerjob###Personalerekruttering###Personalekurser, pædagoger###Støttepersoner###Socialformidlere###Kontaktpersoner###Socialrådgivere, vikarjob###Socialpædagoger, vikarjob###Plejere, vikarjob###Sygehjælpere, vikarjob###Lægesekretærer, vikarjob###Hjemmehjælpere, vikarjob###Lærere, vikarjob###Klinikker###Vikarmatch",45 76 90 47,Kinnerup Care ApS,"Christianshusvej 4 F, 2970 Hørsholm","Kinnerup Care - Vikarbureau for sundhed, socialrådgivere og pædagoger. Vi knytter kontakten mellem Danmarks dygtigste vikarer indenfor social- og sundhedssektoren, og kunder som ønsker at gøre målrettet brug af vikarernes kompetence på en omkostning…","Kinnerup Care ApS er et veletableret vikarbureau stiftet i 1995 for hele sundhedssektoren, socialrådgivere og socialpædagoger. Vi har udviklet os meget i årene siden takket være vores dygtige vikarer og et godt samarbejde med vore kunder. Vores mål er at være seriøs og loyal. En perfekt service betyder alt for os, dvs. den rette vikar til det rette arbejde. For at sikre vikar og kunde har vi tegnet overenskomst med DSR, FOA, BUPL, HK, DADJ, SR og PM. Kinnerup Care ApS - en god oplevelse.###Kinnerup Care ApS er et veletableret vikarbureau stiftet i 1995 for hele sundhedssektoren, socialrådgivere og socialpædagoger. Vi har udviklet os meget i årene siden takket være vores dygtige vikarer og et godt samarbejde med vore kunder. Vores mål er at være seriøs og loyal. En perfekt service betyder alt for os, dvs. den rette vikar til det rette arbejde. For at sikre vikar og kunde har vi tegnet overenskomst med DSR, FOA, BUPL, HK, DADJ, SR og PM. Kinnerup Care ApS - en god oplevelse.","Pædagoger efter behov###Vi har erfarne pædagoger, som i perioder har løst opgaver for institutionerne, hvor kun erfarne og uddannede pædagoger kunne løse de stillede opgaver.###Alle vore vikarer er omhyggeligt udvalgte gennem et grundigt interview, hvor vi sikrer os, at vikaren har de nødvendige kvalifikationer, både faglige og menneskelige.###Enhver opgave vi påtager os, er forinden nøje beskrevet med hensyn til mål og indhold. Udfra dette finder vi den pædagog, som matcher opgaven og institutionen bedst.###Ved opgavens afslutning evalueres forløbet med såvel institutionen som vikaren. Vi anser dette for en vigtig del af forløbet, da vi til stadighed ønsker at forbedre vort koncept til gavn for brugere og vikarer.###Ring til os, spørg efter pædagogkonsulent Hanne Herskind, og hør nærmere.###Også hvis du er interesseret i at være vikar.###Jordemoder###Kinnerup Care ApS, er et veletableret vikarbureau for hele social- og sundhedssektorenSelskabet er stiftet i 1995 hvor vi startede med sygeplejersker og hjælpergruppen og hurtigt udvidede til også at dække med jordemodervikarer.###Vi er det bureau i Danmark der har den længste erfaring med jordemødre, vi var faktisk det første af de eksisterende bureauer der tegnede overenskomst med DADJ og vi sidder stadig med til forhandlingsbordet når den skal fornyes!###Takket være loyale kunder og dygtige vikarer kan vi glæde os over en fortsat eksistens og en sund økonomi, som giver vores kunder og vikarer en forvisning om og en sikkerhed for, at vi også er her næste gang du ringer.###Et af vore succes-kriterier er, at vore kunder aldrig går forgæves, uanset hvilke opgaver de stiller os. Vi har besluttet, som leverandør af bl.a. jordemødre, at skille os ud fra mængden ved at tage ordet service lidt mere seriøst end de fleste. Vi vil gerne have at kunden altid kan regne med den bedste kvalitet, på rette tid og til den rigtige pris.###Ganske kort kan vort mål udtrykkes som: Et ønske om og en vilje til, altid at sikre veluddannede, velkvalificerede og velmotiverede vikarer til vore kunder.###Kinnerup Care ApS vil###- Levere rutinerede jordemodervikarer til svangre, føde, barsel og obstetriske afdelinger###- Være vikarernes og fødestedernes foretrukne vikarbureau###- Levere en høj kvalitet med personlig betjening af jordemødre###- Have et indgående kendskab til vores vikarer og kunder###- Samarbejde med DADJ, for at sikre et forsvarligt løn og prisniveau###- Være det bedste alternativ til vore kunders egne ansatte###- Være synlige og tilstedeværende i det omfang kunden ønsker det###- Kontrollere og følge op på eget arbejde.###- Fortsat være, en danskejet virksomhed med historie og traditioner.###Kinnerup Care ApS kan tilbyde:###En velfungerende jordemoderafdeling ledet af jordemødre med mange års praktisk egen-erfaring fra alle sider af faget.###Vi kan tilbyde et rart og inspirerende samarbejde, hvor vi altid vil gøre vores bedste for at kunden og vikaren får en god og positiv oplevelse i korte, som vel som længerevarende vikariater.###Vi kan tilbyde vikarassistance med følgende uddannelser:###Jordemødre, jordemoderstuderende uden ansvar, sygeplejersker, social- og sundhedsassistenter og sygehjælpere med erfaring fra svangre/føde, barsel og obstetriske afdelinger.###Vi kan også tilbyde vikarer til specialopgaver som afdelingsjordemoder, jordemoderkonsultation, fødselsforberedelse og til udstationering i Grønland og Norden.###Kinnerup Care ApS er et vikarbureau som lægger vægt på udvikle sine medarbejdere både fagligt og personligt. Det tror vi er det bedste fundament for en sund langsigtet udvikling, og vi har lige siden etableringen i 1995 holdt fast ved disse grundlæggende værdier.###Vi har specialiseret os i at rekruttere og formidle vikaropgaver indenfor social- og sundhedssektoren. Det er vores faglighed og kompetence, der gør os i stand til at arbejde succesfuldt på så vitale områder som netop pleje og omsorg.###Vi arbejder altid i tæt dialog med kunder og vikarer. Det giver en inspirerende arbejdsdag for vikarerne og et godt udbytte for vore kunder.###Alle Kinnerup Cares vikarer tilknyttes først efter en grundig personlig samtale.###Ansøgerens menneskelige kvalifikationer og lysten til at yde en ekstraordinær indsats er sammen med en positiv, stabil og pligtopfyldende adfærd afgørende for, om vi kan tilbyde en tilknytning som vikar. Vi sætter ligeledes stor pris på, at vikaren har et godt humør, har lyst til at tage imod krævende udfordringer, og er åben i mødet med andre mennesker.###Overenskomster og Medlemskaber###Kinnerup Care ApS har bl.a. indgået overenskomster med DADJ, DSR og FOA.###Kinnerup Care ApS er medlem af DHS Dansk Handel &amp; Service, FASID Foreningen af Sygeplejevikarbureauer i Danmark samt FVD Foreningen af Vikarbureauer i Danmark.",http://www.kinnerupcare.dk
Vikarbureauer,,Vikarbureauer###Vikarformidling,"Personalerekruttering###Kantineassistenter, vikarjob###Vikarløsninger###Kontor, vikarjob###Jobsøgning###Administrativt personale###Human Resource-konsulenter###Vikarjob###Arbejdskraft###IT-personale, rekruttering###Personale###Receptionister###Try &amp; Hire###Pakkerier###Vikarrekruttering",,Witzel Vikarservice ApS,"Rosengade 2, 4200 Slagelse","Witzel Vikarservice har eksisteret siden februar 1999. Vi har flere års erfaring inden for personaleområdet, og tilbyder vikarer og kunder en professionel konsulentbistand. Vi dækker Vest- og Midtsjælland samt Østfyn med vikarassistance og personale…","Hos Witzel Vikarservice har vi flere års erfaring indenfor personale- området. Vore serviceydelser omfatter vikarassistance i bred forstand og personaleudvælgelse til faste stillinger. Nøgleordet for os er den tætte, personlige kontakt til såvel Dem og Deres virksomhed, som til vore vikarer.###Hos Witzel Vikarservice har vi flere års erfaring indenfor personale- området. Vore serviceydelser omfatter vikarassistance i bred forstand og personaleudvælgelse til faste stillinger. Nøgleordet for os er den tætte, personlige kontakt til såvel Dem og Deres virksomhed, som til vore vikarer.",Økonomiske fordele - betal kun for effektiv arbejdstid..###- Afregningen er let og enkel.###- Omkostninger på timebasis###- Betaling kun for effektiv arbejdstid###- Priser inkl. alle soc. bidrag samt omkostninger til 1. og 2. ledighedsdag###- Samarbejdet kan opsiges med øjeblikkelig varsel###Læs meget mere på vores###,http://www.witzel-vikar.dk
Vikarbureauer,Mobil,Hjemmeservice###Vikarbureauer###Profilannonce,Haveservice###Handymand###Rengøring###Erhvervsrengøring###Hækklipning###Vikarfirmaer###Vikarformidling###Skadeservice###Vandskader###Vikarjob,30 82 39 21,Vikarservice Østjylland,"Messingvej 35, 8940 Randers SV","Vikarservice Østjylland har siden 1981 leveret dygtige medarbejdere til Landbruget. I vores nye afdeling Hjemmeservice Østjylland, kan vi nu også tilbyde rengøringshjælp under FritValg i Randers Kommune, og under hjemmeserviceordningen, med 30 % til…","Vi er godkendt til at levere under hjemmeserviceordningen, hvor der er 30% tilskud til alle pensionister. Vi servicerer såvel erhvervs som privat og offentlige kunder. Vi kan også levere dygtige havemænd, som kan varetage de fleste opgaver på dette område. Hos Hjemmeservice Østjylland, løses alle opgaver med ansvarlighed, og i dialog og samarbejde med kunden. Vi har den grønne smiley, som viser, at vi ikke har noget udestående med arbejdstilsynet, og at vi har orden på vores arbejdsmiljø.###Vikarservice Østjylland har siden 1981 ydet serviceafløsning til vore kunder i Østjylland.Vi leverer dygtige medarbejdere til både landbrug, entreprenør og byggebranchen.Hos Vikarservice Østjylland, løses alle opgaver med ansvarlighed, og i dialog og samarbejde med kunden.Hos os er en aftale en aftale. Vi har den grønne smiley, som viser, at vi ikke har noget udestående med arbejdstilsynet, og at vi har orden på vores arbejdsmiljø.###Vikarservice Østjylland har siden 1981 leveret dygtige medarbejdere til Landbruget. I vores nye afdeling Hjemmeservice Østjylland, kan vi nu også tilbyde rengøringshjælp under FritValg i Randers Kommune, og under hjemmeserviceordningen, med 30 % tilskud. Vi vil videreføre vores erfaringer og tradition fra Vikarservice, til også at omfatte Hjemmeservice, således vi også på dette område kan levere dygtige og stabile medarbejdere.","###Vi har siden 1981 ydet serviceafløsning til vore kunder i Østjylland.###Vikarservice Østjylland udspringer af landbruget, men har i dag kunder i en lang række erverv.###Vi formidler vikarer til enhver opgave.###Mennesket i centrum.###Mennesker er forskellige, og det er Vikarservice Østjylland's kunder også. Derfor tager vi udgangspunkt i den enkelte kundes situation.###Hos Vikar- og Hjemmeservice Østjylland, løses alle opgaver med ansvarlighed, og i dialog og samarbejde med kunden.###Hos os er en aftale en aftale.###Vi har den grønne smiley, som viser, at vi ikke har noget udestående med arbejdstilsynet, og at vi har orden på vores arbejdsmiljø.",http://www.vikarserviceoj.dk
Vikarbureauer,,Tømrere###Tømrerfirmaer###Tømrermestre###Profilannonce,Snedkermestre###Byggefirmaer###Entreprenører###Døre og vinduer###Tage###Isolering###Gulve###Vikarbureauer###Vikarjob###BYGGARANTI,,Tn-Crew Danmark ApS,"Riberlundvej 5, Lindved, 7100 Vejle",Vi udfører alle former for byggeopgaver. Store såvel mindre tømrer- og snedkeropgaver udføres med faglig stolthed og leveres til aftalt tid og pris. Kontakt os for uforbindende tilbudsgivning allerede i dag.,"Med mange års erfaring i byggebranchen er TN-Crew Danmark ApS det solide og sikre valg, når dit byggeprojekt skal realiseres. Opgaverne er primært villabyggeri, andelsboligbyggeri og forskelligt offentlig byggeri.###Med mange års erfaring i byggebranchen er TN-Crew Danmark ApS det solide og sikre valg, når dit byggeprojekt skal realiseres. Opgaverne er primært villabyggeri, andelsboligbyggeri og forskelligt offentlig byggeri.###Med mange års erfaring i byggebranchen er TN-Crew Danmark ApS det solide og sikre valg, når dit byggeprojekt skal realiseres. Opgaverne er primært villabyggeri, andelsboligbyggeri og forskelligt offentlig byggeri.###Vi udfører alle former for byggeopgaver. Store såvel mindre tømrer- og snedkeropgaver udføres med faglig stolthed og leveres til aftalt tid og pris. Kontakt os for uforbindende tilbudsgivning allerede i dag.","Vi er et firma, som gerne hjælper dig med at løse store og små entreprenøropgaver, indenfor et meget bredt område. Vi kan lave alt fra renovation af dit hus og til fliselægning med mere.###Kontakt os for yderligere oplysninger.",http://tn-crew.dk
Vikarbureauer,,,,,BR Vikar Service I/S,"Rentemestervej 28, 1. sal., 2400 København NV",Not specified,,,Company site unknown
Vikarbureauer,Mobil,,,"71 10 60 06,50 40 53 75,71 10 60 06",CVTRACKER.DK v/ Martin Andersen,"Stisager 92, 2600 Glostrup",Not specified,,,Company site unknown
Vikarbureauer,Fax,,,"23 46 65 63,56 97 58 27",Vikarservice Bornholm,"Rønnevej 1, 3720 Aakirkeby",Not specified,,,http://www.vikarservice.nu
Vikarbureauer,,,,58 38 00 60,Hulby Møllegård,"Slagelse Landevej 17, Hulby, 4220 Korsør",Not specified,,,Company site unknown
Vikarbureauer,,,,25 65 00 70,K.J. Service,"Holmsøvej 184, Holmsø Kær, 9690 Fjerritslev",Not specified,,,Company site unknown
Vikarbureauer,Mobil,,,"42 78 46 52,42 78 81 81,50 73 79 30,50 90 11 61",Vestergaard Vikar v/ Susanne Vestergaard Jessen,"Urhøjvej 30, Bjerge, 4480 Store Fuglede",Not specified,,,Company site unknown
"Bygge- og anlægsentreprenører,Vikarbureauer",Mobil,,,"86 94 28 06,40 31 94 16",Flemming Lund Kristensen,"Labing Landevej 7, 8462 Harlev J",Not specified,,,Company site unknown
Vikarbureauer,Tlf.,,,"59 47 03 10,59 47 03 40,59 47 03 40",JOBDK Holbæk,"Ahlgade 61, 3. sal., 4300 Holbæk",Not specified,,,http://www.jobdk.dk
Vikarbureauer,Tlf.,,,"43 53 77 08,75 72 72 37",Jkl Montage Kbh ApS,"Dæmningen 56, 7100 Vejle",Not specified,,,Company site unknown
Vikarbureauer,,,,29 82 05 70,Krarup Vikarservice,"Søengen 30, 3450 Allerød",Not specified,,,Company site unknown
Vikarbureauer,Mobil,,,"45 76 87 07,22 82 50 16",Sapvikar ApS,"Kildevej 10, 2960 Rungsted Kyst",Not specified,,,Company site unknown
Vikarbureauer,Fax,,,"75 52 75 50,75 52 75 48",JobTeam,"Vestertorv 6, 6000 Kolding",Not specified,,,http://www.jobteam.dk
Vikarbureauer,,,,43 66 17 10,Senior Erhverv Vestegnen,"Værkstedsgården 16, 2620 Albertslund",Not specified,,,http://www.seniorerhverv-vestegnen.dk
Vikarbureauer,Mobil,,,"57 67 65 72,51 24 06 52",Østvikar,"Køgevej 5, 4100 Ringsted",Not specified,,,Company site unknown
Vikarbureauer,Mobil,,,"41 77 77 00,22 66 02 55,41 77 77 00",Frederiksen &amp; HR Mæglerne,"Oluf Borchs Vej 3, 9000 Aalborg",Not specified,,,Company site unknown
Vikarbureauer,,,,53 31 29 76,Tjenerteam v/ Nya Calmer Kristensen,"Nyborggade 10, 3. th., 2100 København Ø",Not specified,,,Company site unknown
Vikarbureauer,,,,22 38 72 73,Mt Contractors ApS,"Garbækstofte 8, 5330 Munkebo",Not specified,,,http://www.mt.dk
Vikarbureauer,,,,24 85 67 25,Hr Vikar ApS,"Roskildevænget 60, 1. tv., 4000 Roskilde",Not specified,,,Company site unknown
Vikarbureauer,Mobil,,,"64 40 29 79,26 15 30 79",Malig &amp; Thomsen ApS,"Gl. Slotsvej 24, Strib, 5500 Middelfart",Not specified,,,Company site unknown
Vikarbureauer,,,,,Markman Rekruttering og Genplacering,"Østergade 6, 1. sal., 9440 Aabybro",Not specified,,,Company site unknown
Vikarbureauer,Fax,,Vikarbureauer###Personalerekruttering###BYGGARANTI,"76 14 17 50,76 14 17 51",JKS A/S,"Kongensgade 123, 6700 Esbjerg",Not specified,,,http://www.jks.dk
Vikarbureauer,,,,21 46 27 28,ValVik I/S,"Gammelgårdsvej 10, 8230 Åbyhøj",Not specified,,,Company site unknown
Vikarbureauer,,,Vikarbureauer###Personalerekruttering###BYGGARANTI,55 36 17 50,JKS A/S,"Algade 18 B, 4760 Vordingborg",Not specified,,,http://www.jks.dk
Vikarbureauer,,,,,Gyldenbrand Vikar v/ Jeff Skov Jørgensen,"Borgerbo 2, 3. th., 2300 København S",Not specified,,,Company site unknown
Vikarbureauer,,,,,Dna Headhunting ApS,"Bregnegårdsvej 12, 2920 Charlottenlund",Not specified,,,Company site unknown
Vikarbureauer,Fax,,,"70 12 12 04,76 25 32 41",Jysk Vikarservice,"Adelgade 54, 9500 Hobro",Not specified,,,http://www.jyskvikarservice.dk
Vikarbureauer,Fax,,,"96 40 00 82,87 80 07 60",Vikarbureauet Medarbejderne ApS,"Adelgade 58, st. th., 9500 Hobro",Not specified,,,http://www.medarbejderne.dk
Vikarbureauer,Mobil,,,"27 83 06 41,27 83 06 40",Manwork ApS,"Vendbjerg 33, Nors, 7700 Thisted",Not specified,,,Company site unknown
Vikarbureauer,Fax,,,"38 16 09 44,38 16 09 20",TEMP-TEAM A/S,"Falkoner Allé 7, 2000 Frederiksberg",Not specified,,,http://www.temp-team.dk
Vikarbureauer,,,,70 27 66 30,"Jobvækst Danmark ApS, Nyborg","Storebæltsvej 10, 5800 Nyborg",Not specified,,,Company site unknown
Vikarbureauer,,,,22 95 91 51,Cphwolves,"Lillegade 10, 2670 Greve",Not specified,,,Company site unknown
Vikarbureauer,,,,22 92 14 16,Fam-Omsorg,"Prinsensgade 26 B, 7000 Fredericia",Not specified,,,http://www.fam-omsorg.dk
Vikarbureauer,,,,39 42 01 22,Matchmind A/S,"Banestrøget 7, Høje Taastrup, 2630 Taastrup",Not specified,,,http://visitsite.dk/
Vikarbureauer,Fax,,,"33 33 75 20,33 33 75 21",JobTeam,"Nørre Farimagsgade 40, 1364 København K",Not specified,,,http://www.jobteam.dk
"Bygge- og anlægsentreprenører,Vikarbureauer",Mobil,,,"98 39 11 06,24 93 32 40,42 36 75 40,61 75 18 36",Abildgaard Service,"Stenildhøjvej 67, 9600 Aars",Not specified,,,Company site unknown
Vikarbureauer,,,,40 32 70 96,LM VIKAR v/ Lone B.Hviid Madsen,"Parkvej 67, st. sal., 4140 Borup",Not specified,,,Company site unknown
"Vikarbureauer,Rørkonstruktioner",,,,22 86 98 39,Ølandmontage,"Aagade 10, 9440 Aabybro",Not specified,,,Company site unknown
Vikarbureauer,,,,26 19 06 52,MF Vikarbureau,"Kirkebjerg Allé 110, 2605 Brøndby",Not specified,,,Company site unknown
Vikarbureauer,Tlf.,,,"49 22 03 22,49 22 36 25,21 45 10 18,23 11 27 03",Hjerterdame Vikarbureau,"Nørrevej 43, 3070 Snekkersten",Not specified,,,http://www.hjerterdame.info
Vikarbureauer,,,,27 82 32 27,Kijana - Dit Lokale Vikarbureau,"Egevej 12, 8700 Horsens",Not specified,,,http://www.kijana.dk
Vikarbureauer,,,,,Pleje Holding ApS,"Algade 52, 1. sal., 4000 Roskilde",Not specified,,,Company site unknown
Vikarbureauer,Fax,,,"49 25 30 30,49 25 30 34",Pluk og Pak,"Kvistgårdsvej 18, 3080 Tikøb",Not specified,,,http://www.plukogpak.dk
Vikarbureauer,,,,28 41 23 45,Poul Lauridsen HR Navigator,"Nørremøllevej 86, 8800 Viborg",Not specified,,,Company site unknown
Vikarbureauer,Fax,,,"27 20 02 85,76 30 06 16",VTM Products Nordic Group,"Strandvænget 39, Strandhuse, 6000 Kolding",Not specified,,,Company site unknown
Vikarbureauer,Mobil,,,"70 20 73 20,25 76 55 25,33 69 06 03",IR Group ApS,"Meldahlsgade 5, 1613 København V",Not specified,,,http://www.ir-group.dk
Vikarbureauer,Mobil,,,"45 82 90 94,21 74 78 66,24 22 64 23,45 82 90 96",De Grønne Områders Vikarbureau ApS,"Bistrup Park 61, 3460 Birkerød",Not specified,,,http://www.dgvvikar.dk
Vikarbureauer,Fax,,,"36 36 01 36,36 41 56 55",System Vikar,"Hvidovrevej 80 C, 2610 Rødovre",Not specified,,,http://www.systemvikar.dk
Vikarbureauer,,,,22 71 90 74,ASJ Vikar og Hjemmeservice,"Birkevænget 3, 5631 Ebberup",Not specified,,,http://www.asj-vikar.dk
Vikarbureauer,,,,24 80 93 28,TK Service,"Carolinelundsvej 9 A, 8700 Horsens",Not specified,,,Company site unknown
Vikarbureauer,Tlf.,,,"21 70 20 96,70 70 20 96,30 28 76 06,30 28 76 82",Esben Bjerg Olesen,"Kongeådal 22, Jedsted, 6771 Gredstedbro",Not specified,,,http://www.kebok.dk
Vikarbureauer,Mobil,,,"75 61 23 99,22 79 23 99,28 87 25 99,40 96 23 99",Keymate ApS,"Bavnehøjvej 16, 8700 Horsens",Not specified,,,http://www.keymate.dk
Vikarbureauer,Mobil,,,"40 47 09 68,27 51 63 22,27 59 06 33,27 59 47 19",Work Forum ApS,"Langdalsvej 22, 8220 Brabrand",Not specified,,,Company site unknown
Vikarbureauer,,,,40 21 94 02,Pia Bolt Vikarbureau,"Sprogøvej 100, 7680 Thyborøn",Not specified,,,Company site unknown
Vikarbureauer,Fax,,,"79 14 11 00,79 14 11 01",Vikteam A/S,"Kongensgade 31, 1. th., 6700 Esbjerg",Not specified,,,http://www.vikteam.dk
Vikarbureauer,Fax,,,"70 20 46 30,70 25 87 49",Vikarbørsen Kolding,"Værkstedsvej 12, Skrillinge, 5500 Middelfart",Not specified,,,http://www.vikarborsen.dk/
Vikarbureauer,Tlf.,,,"49 71 90 04,21 21 68 80",Engelbrecht ApS,"Engsvinget 17, 3250 Gilleleje",Not specified,,,Company site unknown
Vikarbureauer,Fax,,,"25 18 06 37,54 73 32 29",Intern Vikarservice,"Københavnsvej 9, 4800 Nykøbing F",Not specified,,,http://www.guldborgsund.dk
Vikarbureauer,,,,,Dansk Multi Have Service &amp; Mandskabsudlejning S.M.B.A.,"Stenbjergvej 20, 4550 Asnæs",Not specified,,,Company site unknown
Vikarbureauer,Tlf.,,,"45 66 08 00,53 37 24 75,45 66 09 19",Pancrestus ApS Rødegård,"Phistersvej 17, st. th., 2900 Hellerup",Not specified,,,Company site unknown
Vikarbureauer,Mobil,,,"64 72 36 35,51 96 59 40",MH Vikar,"Bøgevej 12, 5620 Glamsbjerg",Not specified,,,Company site unknown
Vikarbureauer,Mobil,,,"44 84 18 10,20 25 33 25",Bvs Gruppen ApS,"Marielundvej 46 C, st. sal., 2730 Herlev",Not specified,,,http://www.bvsgruppen.dk
Vikarbureauer,Mobil,,,"33 37 93 94,40 10 43 89,40 29 43 89,32 84 13 08",MaDeSa,"William Wains Gade 9, 1432 København K",Not specified,,,http://www.madesa-losere.dk
Vikarbureauer,Mobil,,,"40 95 48 36,22 89 44 03,25 12 54 20,25 12 60 43",Nordkystens Sygepleje Vikar,"Kastanie Alle 83, 3250 Gilleleje",Not specified,,,http://www.n-s-v.dk
Vikarbureauer,Mobil,,,"70 23 75 77,40 99 85 20,40 99 85 21,70 23 73 77",M3k ApS,"Odelsgade 46, 7130 Juelsminde",Not specified,,,http://www.m3k.dk
"Ventilationsanlæg og ventilatorer,Vikarbureauer",Mobil,,,"86 62 00 86,40 28 06 00,86 60 00 84",ComVent ApS,"Industrivej 18, 8800 Viborg",Not specified,,,http://www.comvent.dk
Vikarbureauer,,,,21 49 34 54,Hindsfred ApS,"Karolinevej 28, 5500 Middelfart",Not specified,,,Company site unknown
Vikarbureauer,,,,70 22 55 56,Babysitter-Online.dk ApS,"Skovdongvej 1, 5881 Skårup Fyn",Not specified,,,http://www.babysitter-online.dk
Vikarbureauer,,,,,HRsnedkeren,"Avderødvej 27 B, 2980 Kokkedal",Not specified,,,Company site unknown
Vikarbureauer,Mobil,,,"22 15 01 62,20 94 77 04",Søren Thomsen,"Bredmagevej 3, Ring, 8740 Brædstrup",Not specified,,,Company site unknown
Vikarbureauer,Fax,,,"57 67 27 12,57 67 47 12",KH Vikar,"Jellingvej 7, 4200 Slagelse",Not specified,,,http://www.kh-vikar.dk
Vikarbureauer,,,,79 43 61 30,Tucjob ApS,"Vejlevej 23 B, 8722 Hedensted",Not specified,,,Company site unknown
Vikarbureauer,Mobil,,,"63 17 05 57,61 33 05 31",Rainer.Dk S.M.B.A,"Tobovej 60, Gundestrup, 5690 Tommerup",Not specified,,,Company site unknown
Vikarbureauer,,,,21 29 30 94,Vikarfirmaet Bohn,"Amelievænget 13, Lumby, 5270 Odense N",Not specified,,,Company site unknown
Vikarbureauer,,,,74 62 06 84,Syd Service,"Sdr. Landevej 15, Kliplev, 6200 Aabenraa",Not specified,,,Company site unknown
Vikarbureauer,Mobil,,,"75 21 07 10,24 88 58 90,24 88 59 11,50 77 63 06",Vikarservice,"Nordre Boulevard 92, 6800 Varde",Not specified,,,http://www.vikarservice.com
Vikarbureauer,,,,61 26 70 15,Angelcare,"Bygvænget 104, Brønsholm, 2980 Kokkedal",Not specified,,,Company site unknown
Vikarbureauer,,,,,European Agency Group ApS,"Frihedsvej 10, 2960 Rungsted Kyst",Not specified,,,Company site unknown
Vikarbureauer,,,,40 35 97 49,Vikar Team Midt S.M.B.A.,"Nedergårdsvej 16, Aidt, 8881 Thorsø",Not specified,,,http://www.v-t-m.dk
Vikarbureauer,,,,,Hjort &amp; Frøik ApS,"Skovbovængets Alle 10, 4000 Roskilde",Not specified,,,Company site unknown
Vikarbureauer,,,,32 84 70 57,Jobvækst Danmark - København,"Strandlodsvej 48, 2300 København S",Not specified,,,Company site unknown
Vikarbureauer,,,,41 15 02 51,Express vikar,"Buskager 34, 2720 Vanløse",Not specified,,,Company site unknown
Vikarbureauer,Mobil,,,"22 33 31 12,22 30 23 74,22 30 24 18,22 30 24 75",Focus People ApS,"Birkemose Allé 37 A, st. sal., Nørre Bjert, 6000 Kolding",Not specified,,,http://www.focussundhed.dk
Vikarbureauer,Mobil,,,"31 19 77 54,31 77 43 48",Erector'S ApS,"Krøjgårdvej 26, 7400 Herning",Not specified,,,Company site unknown
Vikarbureauer,,,,,Center for Job og Formidling,"Tingbjerg Ås 19, 2700 Brønshøj",Not specified,,,Company site unknown
Vikarbureauer,Fax,,Vikarbureauer###Personalerekruttering###BYGGARANTI,"96 22 17 50,96 22 17 51",JKS A/S,"Havnepladsen 12, 9900 Frederikshavn",Not specified,,,http://www.jks.dk
Vikarbureauer,Fax,,,"55 34 14 00,55 34 14 20",SOS VIKAR v/ Ida Paridon &amp; Flemming Brüggemann (I/S),"Vangedevej 130, 2820 Gentofte",Not specified,,,Company site unknown
Vikarbureauer,,,,32 83 00 67,Babcock Borsig Steinmüller GmbH,"Kongens Nytorv 26, 3. sal., 1050 København K",Not specified,,,Company site unknown
Vikarbureauer,,,,,Studiepower I/S,"Lundestrædet 55, 4300 Holbæk",Not specified,,,Company site unknown
Vikarbureauer,,,,59 31 07 50,"JKS A/S, Holbæk","Ved Faurgården 7, 4300 Holbæk",Not specified,,,http://www.jks.dk
Vikarbureauer,,,,97 54 84 64,Institut for Karriereudvikling A/S,"Østergade 4, 1. th., 7500 Holstebro",Not specified,,,Company site unknown
Vikarbureauer,Fax,,,"97 73 20 65,97 73 20 85",KK Vikarservice,"Sæbyvej 11 B, Sæby, 7870 Roslev",Not specified,,,Company site unknown
Vikarbureauer,Mobil,,,"59 51 72 00,21 90 02 84",Dm Isobud ApS,"Bredgade 44, 4400 Kalundborg",Not specified,,,Company site unknown
Vikarbureauer,Tlf.,,,"24 22 53 51,35 12 67 79",Byens Bedste Vikarservice,"Højstrupvej 70, 2700 Brønshøj",Not specified,,,http://www.bbvikarservice.dk
Vikarbureauer,,,,20 78 42 05,MTF - Maskinfører vikar,"Aastrup Nedervej 2, 6100 Haderslev",Not specified,,,Company site unknown
"Rekrutteringsfirmaer,Vikarbureauer",Fax,,,"76 28 69 44,76 28 69 40",Temp-Team A/S,"Torvet 2, 8600 Silkeborg",Not specified,,,http://www.temp-team.dk
Vikarbureauer,Tlf.,,,"98 10 16 66,32 11 34 05,98 10 16 67",Matchmind Nord ApS,"Vesterbro 21 E, 9000 Aalborg",Not specified,,,http://www.matchmind.dk
Vikarbureauer,,,,,Volunteer Aid I/S,,Not specified,,,Company site unknown
Vikarbureauer,,,,54 70 52 05,Jobforum ApS,"Slagelsevej 16, 4700 Næstved",Not specified,,,Company site unknown
Vikarbureauer,Mobil,,,"35 39 10 11,50 59 10 11",Flexstaff v/ Bue Møller Andersen,"Risbyholmvej 19, 2700 Brønshøj",Not specified,,,Company site unknown
Vikarbureauer,Mobil,Kloakarbejde,BYGGARANTI###Tilbygninger###Neutralisator###Udlejning af fagfolk###Fedtudskiller###Benzinudskiller,"97 44 88 10,40 89 83 63,97 44 88 09",MTJ Industriservice,"Hailkjærvej 3, Hailkjær, 7830 Vinderup","""MTJ kommer overalt i Danmark &amp; udlandet. Vi er et velorganiseret, assisterer entreprenører &amp; håndværkerindustrien med faglærte folk. Du har mulighed for at leje os, både enkelte medarbejdere eller et af vores velfungerende sjakteams. Vi har veludru…","Vi er et velorganiseret firma, der assisterer entreprenører og håndværkerindustrien med faglærte folk. Du har mulighed for at leje os, både enkelte medarbejdere eller et af vores velfungerende sjak-teams. Vi har vores veludrustet firmabiler med det profesionelle værktøj til netop lige din opgave. Vi giver fast pris, overslag og tilbud på din opgave. Vi hjælper også med tegninger og papirarbejde. Vi er entreprenøren og industriens højre hånd - så har du opgaven så har vi mandskabet.""",,http://www.mtj-service.dk
Vikarbureauer,,,,86 82 12 20,Søren Axelsen,"Skellerupvej 8, 8600 Silkeborg",Not specified,,,Company site unknown
Vikarbureauer,,,,23 90 53 62,Work Force,"Vestre Alle 3, 9000 Aalborg",Not specified,,,Company site unknown
Vikarbureauer,,,,,M 501502 ApS,"Farverstræde 3, 4850 Stubbekøbing",Not specified,,,Company site unknown
Vikarbureauer,Tlf.,,,"39 30 37 34,39 30 37 30,24 64 77 22,33 32 43 70",Scandinavian Staffing,"Larsbjørnsstræde 3, 1454 København K",Not specified,,,http://www.staffing.dk
Vikarbureauer,,,,21 25 38 64,J. R. Vikarbureau ApS,"Krengerupvej 14, 5690 Tommerup",Not specified,,,Company site unknown
Vikarbureauer,,,,,Gastrojob.Dk ApS,"Hammerensgade 1, 1267 København K",Not specified,,,Company site unknown
Vikarbureauer,Tlf.,,,"75 24 58 10,64 71 44 00,40 17 48 10",PISA job &amp; Management,"Porsholtparken 7, 6740 Bramming",Not specified,,,http://www.pisa.dk
"Udlejning,Vikarbureauer",Mobil,,,"98 98 69 30,24 40 68 85,25 68 48 50",Martensen Aps,"Lindenborgvej 4, 9800 Hjørring",Not specified,,,Company site unknown
Vikarbureauer,,,,96 60 64 00,Ikadan Industriplast ApS,"Højris Alle 89, 7430 Ikast",Not specified,,,Company site unknown
Vikarbureauer,,,,,"Konsulenthuset Ballisager, Vejle","Torvegade 17, 1. sal., 7100 Vejle",Not specified,,,Company site unknown
Vikarbureauer,,,,,Håndværkervikar ApS,"Klostergade 17, 6240 Løgumkloster",Not specified,,,Company site unknown
Vikarbureauer,Tlf.,,,"86 18 73 31,86 18 75 31,27 11 99 86,86 18 75 31",Knagsted/Jan Hodde Nielsen,"Marstrandsgade 22, st. sal., 8000 Aarhus C",Not specified,,,http://www.knagsted.dk
Vikarbureauer,Mobil,,,"35 36 01 19,22 14 24 88,22 42 08 70,22 90 38 91",Tanja Grunwald Casting v/ Tanja M.G,"Gothersgade 97, 1123 København K",Not specified,,,Company site unknown
Vikarbureauer,Fax,,,"70 23 85 00,39 68 25 61,70 22 00 84",Alterna Group ApS,"Carlsbergvej 24, 3400 Hillerød",Not specified,,,http://www.alterna.dk
Vikarbureauer,,,,75 72 77 08,Jkl Montage Jylland ApS,"Dæmningen 56, 7100 Vejle",Not specified,,,Company site unknown
