category,phone_type,description_headers,tags,phone,company_name,address,short_description,description_paragraphs,gen_description,company_site_url
"Rekrutteringsfirmaer,Vikarbureauer",,,Vikarbureauer###Personalerekruttering###Rekruttering,,Trapez ApS,"Telefontorvet 1, 8000 Aarhus C",Not specified,,,http://www.trapezjob.dk
Vikarbureauer,Mobil,,,"22 12 88 25,26 44 95 47,26 60 38 29",Lejos ApS,"Rugvang 59, Tarup, 5210 Odense NV",Not specified,,,Company site unknown
Vikarbureauer,,,,,Tucjob ApS,"Glarmestervej 2, 1. th., 8600 Silkeborg",Not specified,,,Company site unknown
Vikarbureauer,,,,,Jobenhed,"Parkvej 10 C, 4230 Skælskør",Not specified,,,Company site unknown
Vikarbureauer,Fax,,,"98 10 11 77,98 10 30 34",Temp-Team A/S,"Fjordgade 21, 1. sal., 9000 Aalborg",Not specified,,,http://www.temp-team.dk
"Rekrutteringsfirmaer,Vikarbureauer",Fax,,,"76 20 13 33,87 32 72 70",Excellent Match Talentor,"Dannevirkevej 6, 7000 Fredericia",Not specified,,,http://www.talentor.dk
Vikarbureauer,,,,25 70 90 55,Tryghed Og Omsorg,"Frøsigvej 4, Mejlby, 8981 Spentrup",Not specified,,,http://www.tryghedogomsorg.dk
Vikarbureauer,Mobil,,,"21 25 52 26,28 51 52 26,


    ,
                            ",Pbf Lederudvikling ApS,"Korsørgade 28, 5. sal., 2100 København Ø",Not specified,,,http://www.awd-personaleudvikling.dk
Vikarbureauer,,,,40 40 41 22,Vikarservice Fyn,"Damsbovej 11, 5492 Vissenbjerg",Not specified,,,Company site unknown
Vikarbureauer,Mobil,,,"75 33 66 88,23 26 77 07",Jobvikar ApS,"Borgergade 22, st. tv., 7200 Grindsted",Not specified,,,http://www.jobvikar.dk
Vikarbureauer,,,,,JOBDK Vestegnen,"Søndre Ringvej 35 A, 1. th., 2605 Brøndby",Not specified,,,Company site unknown
Vikarbureauer,Tlf.,,,"70 20 95 99,36 72 40 50,26 34 61 10,29 37 11 40",Man2man ApS,"Rødovrevej 245, 2610 Rødovre",Not specified,,,http://www.man2man.dk
Vikarbureauer,Tlf.,,,"31 24 99 67,32 20 95 15,31 24 99 67",MTJ Freelance v/ Mikkel Torp Jacobsen,"Vilsundvej 129, 9220 Aalborg Øst",Not specified,,,Company site unknown
Vikarbureauer,Tlf.,,,"70 27 94 94,32 17 72 08,70 20 70 08",Mandskab ApS,"Marielundvej 32 A, 2730 Herlev",Not specified,,,Company site unknown
Vikarbureauer,Mobil,,,"75 64 40 58,20 43 26 99",Ingrids Vikar Service,"Dagnæsalle 136, 8700 Horsens",Not specified,,,Company site unknown
Vikarbureauer,,,,,"Konsulenthuset Ballisager, Søren Frichs Vej","Søren Frichs Vej 40 A, 8230 Åbyhøj",Not specified,,,Company site unknown
Vikarbureauer,Fax,,,"43 71 11 06,43 71 11 05",Mega Flex A/S,"A. P. Møllers Allé 17, 2791 Dragør",Not specified,,,http://www.mega-flex.dk/
Vikarbureauer,,,,75 86 78 76,Jobnetværket,"Tømmervej 15, 7080 Børkop",Not specified,,,Company site unknown
Vikarbureauer,,,,24 21 56 21,Troels Jørgensen Vikarservice,"Vindøvej 38, 4912 Harpelunde",Not specified,,,Company site unknown
Vikarbureauer,Fax,,,"44 64 60 00,44 64 60 01",Absalon Rekruttering ApS,"Herlev Hovedgade 195, 2730 Herlev",Not specified,,,http://www.absalonrekruttering.dk
Vikarbureauer,,,,50 52 17 86,Nordic Center Od ApS,"Vestre Stationsvej 54, 5000 Odense C",Not specified,,,Company site unknown
Vikarbureauer,,,,97 92 27 07,Per Vilsen,"Platanvej 9, 7700 Thisted",Not specified,,,Company site unknown
Vikarbureauer,Fax,,,"87 92 22 40,86 59 29 66",Jobcenter Samsø,"Søtofte 10, Tranebjerg, 8305 Samsø",Not specified,,,Company site unknown
Vikarbureauer,,,,98 15 41 46,Børnepasningsbureauet,"Fredrik Bajers Vej 180, 9220 Aalborg Øst",Not specified,,,Company site unknown
Vikarbureauer,,,,,Micro Service ApS,"Brøndbyøster Torv 72, 2605 Brøndby",Not specified,,,Company site unknown
Vikarbureauer,,,,,Jobdk Aabenraa,"Nørreport 4, 6200 Aabenraa",Not specified,,,Company site unknown
Vikarbureauer,Fax,,,"54 16 66 00,54 16 66 10",Team System Vikar ApS,"Algade 70 D, 4760 Vordingborg",Not specified,,,http://www.systemvikar.dk
Vikarbureauer,Mobil,,,"26 40 72 79,26 21 03 14",Gårdlauget Ovalen,"Tåsingegade 45, st. tv., 2100 København Ø",Not specified,,,Company site unknown
Vikarbureauer,Mobil,,,"52 72 75 07,31 60 33 60",ukrainsk-praktikant.dk v/ Maksym Myrnyy,"Vester Alle 29, 1. th., 8000 Aarhus C",Not specified,,,http://www.ukrainsk-praktikant.dk
Vikarbureauer,,,,30 33 22 70,"Læge Peter Bøgedal, vikar","Søndersøparken 5, 19. sal., 8800 Viborg",Not specified,,,Company site unknown
Vikarbureauer,Fax,,,"70 21 02 11,70 27 77 06",Støvring,"Østre Alle 6, 9530 Støvring",Not specified,,,Company site unknown
Vikarbureauer,Fax,,Vikarbureauer###Personalerekruttering###BYGGARANTI,"97 35 17 50,97 35 07 51",JKS a/s,"Østergade 22, 6900 Skjern",Not specified,,,http://www.jks.dk
Vikarbureauer,,,,73 67 07 50,"JKS a/s, Sønderborg","Stenager 2, Ulkebøl, 6400 Sønderborg",Not specified,,,http://www.jks.dk
"Vagtbureauer,Vikarbureauer",Mobil,,,"35 37 88 00,26 18 88 00",Fadl's Vagtbureau,"Blegdamsvej 26, 2200 København N",Not specified,,,http://www.fadl-vagt.dk
Vikarbureauer,,,,,Fs Group ApS,"Risbyholmvej 19, 2700 Brønshøj",Not specified,,,Company site unknown
Vikarbureauer,Mobil,,,"86 42 35 40,40 32 06 57,86 42 35 60",HR-Industries ApS,"Kjellerups Torv 1, 5. sal., 9000 Aalborg",Not specified,,,http://www.hr-industries.dk
Vikarbureauer,Fax,,,"43 71 34 34,43 71 34 88",Asap Personaleservice,"Taastrup Hovedgade 79, 2630 Taastrup",Not specified,,,http://www.asap-personale.dk
Vikarbureauer,Tlf.,,,"40 52 41 44,32 10 80 50",Triplematch ApS,"Nyhavn 16, 1051 København K",Not specified,,,Company site unknown
Vikarbureauer,,,,,Job Specialteam,"Rådhus Alle 100, 9900 Frederikshavn",Not specified,,,Company site unknown
Vikarbureauer,,,,76 10 40 55,H. H. Consult A/S,"Bispensgade 12, 1. tv., 9000 Aalborg",Not specified,,,Company site unknown
Vikarbureauer,Mobil,,,"70 13 03 00,23 34 49 02,23 34 49 82,31 34 03 04",Dansk Kvalitets Vikar A/S,"Skodsborgparken 5, 2942 Skodsborg",Not specified,,,http://www.dkv.dk
Vikarbureauer,Mobil,,,"42 17 60 22,30 86 35 66,31 20 15 02,42 23 26 76",Multiservice BMX ApS,"Kobbelvænget 8, 2. th., 2700 Brønshøj",Not specified,,,Company site unknown
Vikarbureauer,,,,,Jobcenter Vojens,"Trekanten 5, 6500 Vojens",Not specified,,,Company site unknown
Vikarbureauer,,,,86 88 39 15,Midtjydsk Vikarservice,"Søndergade 93, 8620 Kjellerup",Not specified,,,Company site unknown
Vikarbureauer,Tlf.,,,"40 20 36 38,96 21 40 40,96 21 45 45",Tek-Montage El ApS,"Anholtvej 10, 9900 Frederikshavn",Not specified,,,Company site unknown
Vikarbureauer,,,,29 21 00 40,SK Multivikar,"Industrivej 26, 8766 Nørre-Snede",Not specified,,,Company site unknown
Vikarbureauer,,,,20 66 10 79,Pss ApS,"Røjleskovvej 23, Billeshave, 5500 Middelfart",Not specified,,,Company site unknown
Vikarbureauer,,,,49 54 42 49,Rolfos Kennet Roseberg Hecht,"Albjergparken 2, 6. sal., 2660 Brøndby Strand",Not specified,,,Company site unknown
Vikarbureauer,,,,32 32 36 26,Luis Vidar Kalthe,"Gershøjvej 64, Sæby Mark, 4070 Kirke Hyllinge",Not specified,,,Company site unknown
Vikarbureauer,Mobil,,,"70 20 52 11,22 87 15 40",JSV Concept Anpartsselskab,"Buchwaldsgade 13 E, 5000 Odense C",Not specified,,,http://www.js-c.dk/
Vikarbureauer,,,,20 54 97 21,Kompetancehuset JKS ApS,"Jernbanegade 7, 7600 Struer",Not specified,,,Company site unknown
Vikarbureauer,Mobil,,,"22 96 20 07,22 96 20 07",House Of Orbit v/ Winnie Nissen,"Søsvinget 8, 2635 Ishøj",Not specified,,,Company site unknown
Vikarbureauer,,,,61 96 24 28,Workpartner ApS,"Kornvej 16, 6715 Esbjerg N",Not specified,,,Company site unknown
Vikarbureauer,Mobil,,,"70 11 02 30,22 29 60 29,22 29 60 31,22 29 60 33",Plejevikar A/S,"Anelystparken 39 D, True, 8381 Tilst",Not specified,,,Company site unknown
Vikarbureauer,Mobil,,,"22 27 22 46,22 72 07 44",Untamed Solutions v/ Marija Zarina Müller,"Callisensvej 14, 1. th., 2900 Hellerup",Not specified,,,Company site unknown
Vikarbureauer,,,,70 20 24 03,Scan-Coating.Com ApS,"Lille Fredensvej 10, 1. sal., 2920 Charlottenlund",Not specified,,,Company site unknown
Vikarbureauer,Mobil,,,"40 71 92 40,40 71 92 40",Nørgaard Management v/ Henrik Nørgaard,"Indiakaj 3, st. tv., 2100 København Ø",Not specified,,,Company site unknown
Vikarbureauer,,,,,Scandic Rail Partners (Srp) ApS,"Sønderbyvej 6, Møgeltønder, 6270 Tønder",Not specified,,,Company site unknown
Vikarbureauer,Fax,,,"76 43 65 00,75 84 07 95",Topvikar,"Spettrupvej 51, Spettrup, 8722 Hedensted",Not specified,,,http://www.topvikar.dk
Vikarbureauer,Mobil,,,"23 46 12 88,23 46 11 26,23 46 13 15,23 46 13 65",Dtv Group ApS,"Morbærhaven 10, 2620 Albertslund",Not specified,,,Company site unknown
Vikarbureauer,Tlf.,,,"74 62 24 23,61 61 67 92,74 62 24 38",Bulhuset ApS,"Wollesgyde 10, 6200 Aabenraa",Not specified,,,Company site unknown
Vikarbureauer,,,,,Breums Service ApS,"Lilletoften 51, st. tv., 2740 Skovlunde",Not specified,,,Company site unknown
Vikarbureauer,,,,,"Jobhus, Thisted, arbejdsvederlag","Præstejorden 5, 7700 Thisted",Not specified,,,Company site unknown
Vikarbureauer,,,,,JOBDK Køge,"Tigervej 14, 4600 Køge",Not specified,,,Company site unknown
Vikarbureauer,,,,,Fokuscenter,"Korshøjvej 3 B, 8600 Silkeborg",Not specified,,,Company site unknown
Vikarbureauer,Tlf.,,,"27 28 65 62,35 10 36 21,31 15 38 00",Plan B Vikar ApS,"Horserød Byvej 1 A, Horserød, 3000 Helsingør",Not specified,,,Company site unknown
Vikarbureauer,,,,54 87 10 35,D.K.Flex Service v/ Mikael Jacobsen,"Gl. Marielystvej 25, 4873 Væggerløse",Not specified,,,Company site unknown
Vikarbureauer,,,,75 13 40 05,Jobteam Sundhed A/S,"Skolegade 7, 6700 Esbjerg",Not specified,,,Company site unknown
Vikarbureauer,,,,22 74 75 07,25. oktober 2007 ApS,"Østre Alle 38, 9800 Hjørring",Not specified,,,Company site unknown
Vikarbureauer,Fax,,,"38 38 77 80,38 38 77 20","Adecco Medical &amp; Science, Århus","Ryesgade 29, 4. sal., 8000 Aarhus C",Not specified,,,http://www.adecco.dk
Vikarbureauer,,,,42 40 09 96,Udrykkerne ApS,"Høje Gladsaxe 11, 2860 Søborg",Not specified,,,Company site unknown
Vikarbureauer,Mobil,,,"75 82 21 14,40 87 44 42",A Team Vikarservice ApS,"Skovbrynet 45, 8722 Hedensted",Not specified,,,http://www.ateamvikar.dk
Vikarbureauer,,,,20 21 96 24,Sirius,"Nordkap 6, 7680 Thyborøn",Not specified,,,Company site unknown
Vikarbureauer,Fax,,,"96 31 80 71,96 31 80 72,


    ,
                            ",ActivCare A/S,"Jørgen Berthelsens Vej 30, 9400 Nørresundby",Not specified,,,http://www.activcare.dk
Vikarbureauer,Fax,,,"43 31 00 71,43 55 28 00",ScanPeople ApS,"Roskildevej 328, 2630 Taastrup",Not specified,,,http://www.scanpeople.dk
Vikarbureauer,Mobil,,,"31 32 90 05,53 23 48 31",MultiService A.Z.A. v/ Omar el Awsy,"Nyvej 43, 1. th., 2620 Albertslund",Not specified,,,Company site unknown
Vikarbureauer,,,,70 23 63 72,Human Power v/ Helle Jensen,"Linnésgade 26, st. tv., 1361 København K",Not specified,,,Company site unknown
Vikarbureauer,,,,20 13 01 25,Molte &amp; Hjort,"Ringstedvej 178 A, Kvanløse, 4300 Holbæk",Not specified,,,http://www.hjort-molte.dk
Vikarbureauer,Mobil,,,"43 64 49 13,20 62 84 14,22 50 65 42",Best Choice,"Krømlingevej 10, Krømlinge, 4700 Næstved",Not specified,,,http://www.best-choice.dk
Vikarbureauer,Mobil,,,"33 33 76 13,33 33 86 99",Allmedica AB,"Vesterbrogade 6 D, 6. sal., 1620 København V",Not specified,,,Company site unknown
Vikarbureauer,,,,,Mploy v/ Pernille Hesselby,"Apperupvej 54, Apperup, 3140 Ålsgårde",Not specified,,,Company site unknown
Vikarbureauer,,,,,Virksomhedstaskforcen,"Viborgvej 7, 7800 Skive",Not specified,,,Company site unknown
Vikarbureauer,Mobil,,,"97 20 85 83,23 93 12 89,61 38 64 57",Bjarne Løgager Holst-Pedersen og Elisabeth Holst-Pedersen,"Albækvej 20, Timring, 7480 Vildbjerg",Not specified,,,Company site unknown
Vikarbureauer,Fax,,,"44 53 00 55,44 53 00 59",VikarBasen A/S,"Hørkær 12 A, 1. sal., 2730 Herlev",Not specified,,,http://www.vikarbasen.dk
Vikarbureauer,,,,86 36 53 88,JOBDK Ugelbølle,"Ryomvej 1, Ugelbølle, 8410 Rønde",Not specified,,,Company site unknown
Vikarbureauer,,,,76 30 01 01,Ramsdal Vikar &amp; Rekruttering A/S,"J. Chr. Juliussens Vej 9, 8700 Horsens",Not specified,,,Company site unknown
Vikarbureauer,,,,24 84 22 33,Gyda Vikarbureau ApS,"Fiskervej 10 A, Kulhuse, 3630 Jægerspris",Not specified,,,Company site unknown
Vikarbureauer,,,,,Jobenhed,"Jacob Dampes Vej 5, 2. th., 4200 Slagelse",Not specified,,,Company site unknown
Vikarbureauer,,,,40 18 80 85,E. K. Service,"Iruplundvej 6, 7755 Bedsted Thy",Not specified,,,Company site unknown
Vikarbureauer,Fax,,,"38 38 11 40,66 14 22 21",Adecco A/S,"Filosofgangen 21, 2. sal., 5000 Odense C",Not specified,,,http://www.adecco.dk
Vikarbureauer,,,,57 87 69 41,Jobcenter Sorø (Stenlille afdelingen),"Hovedgaden 60, 4295 Stenlille",Not specified,,,Company site unknown
Vikarbureauer,,,,59 51 22 33,Bemandingskompagniet A/S,"Amtmandsvej 1, 4300 Holbæk",Not specified,,,Company site unknown
Vikarbureauer,,,,45 93 04 17,Pia Medica I/S,"Trongårdsparken 22, 2800 Kgs. Lyngby",Not specified,,,Company site unknown
Vikarbureauer,,,,98 15 80 80,Plastvinduer ApS,"Vrenstedvej 467 A, Vrensted, 9480 Løkken",Not specified,,,Company site unknown
Vikarbureauer,Tlf.,,,"98 86 73 01,98 86 75 00,98 86 75 02",Steen Rafn Headhunting,"Fjembhedevej 36, Præstbro, 9330 Dronninglund",Not specified,,,Company site unknown
Vikarbureauer,,,,74 83 27 63,Skovbys Vikar Service,"Høllevang 267, 6520 Toftlund",Not specified,,,Company site unknown
Vikarbureauer,,,,53 37 99 67,Krzysztof Dariusz Migiel,"Kristianslund 17 B, 4000 Roskilde",Not specified,,,Company site unknown
Vikarbureauer,,,,41 18 53 31,Landbrugsvikaren,"Tovskovvej 7, Mølby, 6560 Sommersted",Not specified,,,http://www.landbrugsvikaren.dk
"Rekrutteringsfirmaer,Vikarbureauer",Fax,,,"70 22 45 05,36 94 40 10",Consultor,"Tuborg Boulevard 12, 3. sal., 2900 Hellerup",Not specified,,,http://www.consultor.dk
Vikarbureauer,Fax,,,"97 87 54 60,97 87 54 60",Houes Vikarbureau,"Tambohusvej 17, Hellerød, 7790 Thyholm",Not specified,,,Company site unknown
Vikarbureauer,,,,23 45 09 03,B.H Vikarservice,"Meldgårdsparken 19, 8882 Fårvang",Not specified,,,Company site unknown
Vikarbureauer,Fax,,,"96 23 20 20,96 23 20 21",AktivPersonale A/S,"Østergade 19, 9800 Hjørring",Not specified,,,Company site unknown
Vikarbureauer,,,,70 27 05 35,Avignon ApS,"Rådhuspladsen 16, 1550 København V",Not specified,,,Company site unknown
Vikarbureauer,Mobil,,,"45 57 22 00,21 64 39 52,22 45 22 72,40 38 28 40",Pareta ApS,"Agern Alle 3, 2970 Hørsholm",Not specified,,,http://www.pareta.dk
Vikarbureauer,Mobil,,,"98 12 33 80,40 50 97 65,40 71 35 41,98 12 33 26",Fugefirmaet Harregaard ApS,"Kristinevej 2 C, 9000 Aalborg",Not specified,,,Company site unknown
Vikarbureauer,,,,,Administrationsselskabet af 13/10 2011 ApS,"Gydevang 39, 3450 Allerød",Not specified,,,Company site unknown
Vikarbureauer,,,,72 22 35 00,Specialfunktionen for etnisk beskæftigelsesindsats,"Universitetsvej 2, 4000 Roskilde",Not specified,,,Company site unknown
Vikarbureauer,,,,38 11 11 12,Akut-Hjælpen ApS,"Christoffers Alle 59, 2800 Kgs. Lyngby",Not specified,,,http://www.akut-hjaelpen.dk
Vikarbureauer,,,,23 20 51 07,Vibeke Stephansen,"Langelinie Allé 7, 3. sal., 2100 København Ø",Not specified,,,Company site unknown
Vikarbureauer,,,,87 40 07 50,JKS A/S,"Jernbanegade 1, 8800 Viborg",Not specified,,,http://www.jks.dk
Vikarbureauer,Mobil,,,"86 13 95 56,22 18 95 56,40 40 71 40",Team4search ApS,"Østbanegade 45, 5. tv., 2100 København Ø",Not specified,,,Company site unknown
Vikarbureauer,Mobil,,,"63 31 03 90,20 83 94 97,40 82 72 62,63 31 03 91",Your Partner ApS,"Falstervej 10 D, 5800 Nyborg",Not specified,,,http://www.yourpartner.dk
Vikarbureauer,Mobil,,,"40 15 12 78,27 83 06 40,27 83 06 41",Manwork ApS,"Vendbjerg 33, Nors, 7700 Thisted",Not specified,,,http://www.manwork.dk
Vikarbureauer,Mobil,,,"73 66 50 20,41 52 21 84",Heds Vikarservice v/ Flemming Rasmussen,"Løgumklostervej 16, Heds, 6360 Tinglev",Not specified,,,Company site unknown
Vikarbureauer,,,,,AASHOLM v/ Peter Aasholm,"Brovej 28, 9510 Arden",Not specified,,,Company site unknown
Vikarbureauer,Mobil,,,"75 31 08 02,28 44 18 90,75 32 29 30",GBK Service ApS,"Ølgodvej 22, Jerrig, 7200 Grindsted",Not specified,,,http://www.gbk-service.dk
Vikarbureauer,,,,,Wingmanager A/S,"Bredgade 32, 2. sal., 6000 Kolding",Not specified,,,Company site unknown
Vikarbureauer,Tlf.,,,"96 23 00 10,98 13 62 21,96 23 00 11",AktivPersonale A/S,"Kattesundet 45, 9000 Aalborg",Not specified,,,Company site unknown
Vikarbureauer,,,,86 34 46 93,Kjærs Byggeservice ApS,"Hirsevangen 6, Boeslum, 8400 Ebeltoft",Not specified,,,Company site unknown
Vikarbureauer,,,,40 59 95 93,Christianshøjs Holding ApS,"Christianshøjvej 19, Kr. Værløse, 3500 Værløse",Not specified,,,Company site unknown
Vikarbureauer,Fax,,,"70 22 47 88,33 13 95 11",Jobii A/S,"Østerbrogade 125, 2100 København Ø",Not specified,,,http://www.jobii.dk
Vikarbureauer,,,,,Levit v/ Serina Klejstrup Hedegaard,"Chr. M. Østergaards Vej 4 A, 8700 Horsens",Not specified,,,Company site unknown
Vikarbureauer,,,,,Ishøj Kommune - Jobcenter,"Industrigrenen 13, 2635 Ishøj",Not specified,,,Company site unknown
Vikarbureauer,Tlf.,,,"70 11 19 19,87 30 30 30",ISS Jobudviklingscenter,"Rentemestervej 62, 2400 København NV",Not specified,,,Company site unknown
Vikarbureauer,Tlf.,,,"70 27 76 60,70 11 01 15,70 20 55 05,24 24 09 52","Teamvikaren.dk, Århus ApS","Paludan-Müllers Vej 24, 1. sal., 8200 Aarhus N",Not specified,,,http://www.teamvikaren.dk
Vikarbureauer,Fax,,,"86 98 52 94,86 98 52 37",Pleje &amp; Omsorg A/S,"Søndergade 6, 8382 Hinnerup",Not specified,,,http://www.plejeogomsorg.dk
Vikarbureauer,,,,26 65 60 99,Express Service,"Amager Landevej 176, 2770 Kastrup",Not specified,,,Company site unknown
Vikarbureauer,Tlf.,,,"21 75 05 54,70 26 05 54,22 25 05 54,22 92 05 54",LH-Ren-Care ApS,"Hyrdehøj 4, 2680 Solrød Strand",Not specified,,,Company site unknown
Vikarbureauer,Tlf.,,,"70 30 09 64,75 47 04 45",Job In Vest A/S,"Vestkraftgade 1, 6700 Esbjerg",Not specified,,,Company site unknown
Vikarbureauer,,,,,Capacent - Institut for Karriereudvikling A/S,"Sct. Knudsgade 46, 4100 Ringsted",Not specified,,,Company site unknown
Vikarbureauer,Mobil,,,"43 95 93 00,23 72 48 31,23 74 92 40,25 47 76 18",Kim Johansen Kvistgård A/S,"Geminivej 10, 2670 Greve",Not specified,,,Company site unknown
Vikarbureauer,Fax,,,"70 10 33 35,70 10 33 25",Job Vision A/S Roskilde,"Havnevej 1, 2. th., 4000 Roskilde",Not specified,,,Company site unknown
Vikarbureauer,Mobil,,,"97 51 27 37,29 76 48 75",HJ-Vikar,"Fyrrevænget 8, 7800 Skive",Not specified,,,Company site unknown
Vikarbureauer,Fax,,Vikarbureauer,"70 20 03 83,72 17 44 68",Hartmanns A/S,"Tværgade 7 C, 8600 Silkeborg",Not specified,,,http://www.hartmanns.dk
Vikarbureauer,,,,,Jobcenter Århus Syd,"Grøndalsvej 2, 8260 Viby J",Not specified,,,Company site unknown
Vikarbureauer,Tlf.,,,"35 25 40 80,35 25 18 80,35 25 40 81",Promando A/S,"Østerfælled Torv 5, 2100 København Ø",Not specified,,,http://www.promando.dk
Vikarbureauer,,,,31 10 10 30,Erasmus Adamonis,"Låsbygade 110, 2. sal., 6000 Kolding",Not specified,,,Company site unknown
Vikarbureauer,,,,96 28 52 50,Projektenheden,"Gudhjemvej 2, 7400 Herning",Not specified,,,Company site unknown
Vikarbureauer,Tlf.,,,"36 46 82 27,36 46 82 28,61 68 82 28,61 77 82 29",Weppler Consulting v/ Claus Eske Weppler,"Ansgars Allé 9, 2500 Valby",Not specified,,,Company site unknown
Vikarbureauer,,,,,Ad Hoc Vikar &amp; Regnskab v/ Jan Halbro,"Kanalens Kvarter 84, 2. tv., 2620 Albertslund",Not specified,,,Company site unknown
Vikarbureauer,Fax,,,"70 22 47 90,43 44 72 74",Jobii A/S,"Taastrup Hovedgade 107, 2630 Taastrup",Not specified,,,http://www.jobii.dk
Vikarbureauer,,,,,Nordskoven beskæftigelsesværksted,"Lemvigvej 10, 7673 Harboøre",Not specified,,,Company site unknown
Vikarbureauer,Mobil,,,"97 52 98 33,28 14 73 05,40 20 63 04,97 52 41 65",Skiveegnens Vikarservice,"Ågade 8, 7800 Skive",Not specified,,,Company site unknown
Vikarbureauer,,,,49 19 28 75,Anpartsselskabet Tagdoktoren.Dk,"Humlehaven 2, 3050 Humlebæk",Not specified,,,Company site unknown
Vikarbureauer,Mobil,,,"98 96 23 22,25 15 24 45",JP Landbrugsvikar,"Søholmvej 8, 9830 Tårs",Not specified,,,Company site unknown
Vikarbureauer,,,,75 59 85 55,Institut for Karriereudvikling a/s,"Klostergade 25, 3. sal., 6000 Kolding",Not specified,,,Company site unknown
Vikarbureauer,,,,,Sadia Trading ApS,"Ryesgade 111 B, 2100 København Ø",Not specified,,,Company site unknown
Vikarbureauer,,,,20 61 45 65,Nordjysk Daglejerservice,"Horsevadet 16, Ravnshøj, 9900 Frederikshavn",Not specified,,,Company site unknown
Vikarbureauer,,,,,Maler Hansen ApS,"Stationsvej 77, Sdr Nærå, 5792 Årslev",Not specified,,,Company site unknown
Vikarbureauer,Tlf.,,,"40 52 41 44,32 12 60 29,40 52 41 44",Obsense ApS,"Gunløgsgade 7, st. tv., 2300 København S",Not specified,,,Company site unknown
Vikarbureauer,Mobil,,,"21 15 36 35,31 39 36 36",A1-Vikarservice ApS,"Benediktevej 4, 3480 Fredensborg",Not specified,,,Company site unknown
Vikarbureauer,,,,22 54 76 54,Santoft ApS,"Violvej 28, 2820 Gentofte",Not specified,,,Company site unknown
Vikarbureauer,,,,43 68 74 35,Jobklubben,"Bygangen 20, 2620 Albertslund",Not specified,,,Company site unknown
Vikarbureauer,,,,,Skerninghuset,"Skerningvej 2, Nybølle, 5750 Ringe",Not specified,,,Company site unknown
Vikarbureauer,Tlf.,,,"35 27 17 00,35 38 00 30,22 57 07 37,22 57 07 51",Proffice A/S,"Sjæleboderne 2, 3. sal., 1122 København K",Not specified,,,http://www.proffice.dk
Vikarbureauer,Fax,,,"65 95 22 88,65 95 22 89,65 95 85 15",Jsc Recruitment A/S,"Agerhatten 16 A, 5. sal., Tornbjerg, 5220 Odense SØ",Not specified,,,http://www.js-c.dk
Vikarbureauer,,,,70 27 66 30,Jobvækst Danmark - Lolland,"Nørrevold 5, 4900 Nakskov",Not specified,,,Company site unknown
Vikarbureauer,Fax,,,"63 12 53 44,63 12 53 40",TEMP-TEAM A/S,"Gråbrødre Plads 4, 5000 Odense C",Not specified,,,http://www.temp-team.dk
Vikarbureauer,,,,28 78 20 70,Annette Søndergaard,"Elsegårdevej 44, 8400 Ebeltoft",Not specified,,,http://www.jobpaadjurs.dk
Vikarbureauer,Tlf.,,,"75 82 01 44,69 66 94 17,69 66 94 29,69 80 49 50",Jansson Gruppen A/S,"Dianavej 13, 7100 Vejle",Not specified,,,Company site unknown
Vikarbureauer,,,,41 18 00 02,Markmanden,"Saksborgvej 71, 6372 Bylderup-Bov",Not specified,,,http://www.markmanden.dk
Vikarbureauer,Tlf.,,,"49 70 88 82,25 11 71 26",Institut for Karriereudvikling A/S,"Fabriksvej 4, 3000 Helsingør",Not specified,,,Company site unknown
Vikarbureauer,Fax,,,"44 94 17 13,44 94 22 18",L.S. Gruppen A/S,"Ordrupvej 125, st. sal., 2920 Charlottenlund",Not specified,,,Company site unknown
Vikarbureauer,Fax,,,"77 77 25 70,96 31 00 97","Adecco Medical &amp; Science, Aalborg","Gravensgade 1 A, 2. sal., 9000 Aalborg",Not specified,,,http://www.adecco.dk
Vikarbureauer,Tlf.,,,"87 70 80 42,87 70 42 37",ActivCare A/S,"Herningvej 14, 6950 Ringkøbing",Not specified,,,Company site unknown
Vikarbureauer,,,,46 98 37 14,Forenmate A/S,"Østre Alle 6, 9530 Støvring",Not specified,,,http://www.forenmate.com
Vikarbureauer,,,,70 70 28 30,Adaptum Partners ApS,"Havnegade 39, 1058 København K",Not specified,,,Company site unknown
Vikarbureauer,,,,98 65 88 25,Ebbesens Vikarservice,"Binderupvej 13, Gislum, 9600 Aars",Not specified,,,Company site unknown
Vikarbureauer,,,,,"Konsulenthuset Ballisager, Esbjerg","Niels Bohrs Vej 6, 6700 Esbjerg",Not specified,,,Company site unknown
Vikarbureauer,Fax,,Vikarbureauer,"70 20 03 83,72 17 44 66",Hartmanns A/S,"Kastelsvej 5, 1. sal., 7000 Fredericia",Not specified,,,http://www.hartmanns.dk
Vikarbureauer,,,,66 17 25 37,Sanderum Pubén v/ John Larsen,"Kodrivervænget 13, Dyrup, 5250 Odense SV",Not specified,,,Company site unknown
Vikarbureauer,,,,20 40 62 82,LK Interim Service v/ Lene Knudsen,"Egekrattet 15, Høje Taastrup, 2630 Taastrup",Not specified,,,Company site unknown
"Rekrutteringsfirmaer,Vikarbureauer",,,Vikarbureauer,45 76 71 38,Hartmanns A/S,"Hovedgaden 37, 2970 Hørsholm",Not specified,,,http://www.hartmanns.dk
Vikarbureauer,Mobil,,,"75 73 01 02,40 38 06 24",Tina Bjerrum Vogensen,"Engmarksvej 4, Lerager, 7323 Give",Not specified,,,http://www.kiaers-kantdesign.dk
Vikarbureauer,Fax,,,"50 81 29 49,45 81 29 49",Gordios People ApS,"Strandvejen 2 B, 4600 Køge",Not specified,,,http://www.gordios.dk
Vikarbureauer,,,,70 15 00 10,Markman Rekruttering &amp; Genplacering A/S,"Østergade 7, 2. sal., 8600 Silkeborg",Not specified,,,Company site unknown
Vikarbureauer,,,,22 29 40 30,Hm Nielsen Holding ApS,"Niels Brocks Gade 4, st. tv., 1574 København V",Not specified,,,Company site unknown
Vikarbureauer,Tlf.,,,"36 36 01 36,43 52 26 94,36 89 30 00",Team System Vikar ApS,"Taastrup Hovedgade 64, 2630 Taastrup",Not specified,,,http://www.systemvikar.dk
Vikarbureauer,,,,21 12 83 30,Institut for Karriereudvikling A/S,"Messevej 1, 9600 Aars",Not specified,,,Company site unknown
Vikarbureauer,,,,31 36 02 58,Teamworkers ApS,"Klaregade 7, 5000 Odense C",Not specified,,,http://www.team-workers.dk/
Vikarbureauer,,,,21 76 77 18,Vikar-Service Danmark ApS,"Havnepladsen 12, 9900 Frederikshavn",Not specified,,,Company site unknown
Vikarbureauer,,,,72 42 19 12,WORK 4 U v/ Majken Grønbæk,"Lindbækvej 8, Honum, 8762 Flemming",Not specified,,,Company site unknown
Vikarbureauer,Tlf.,,,"45 80 88 60,45 80 16 50",Groupsec v/ Otto Ditlev Paulsen,"Skodsborgparken 48, 2. th., 2942 Skodsborg",Not specified,,,Company site unknown
Vikarbureauer,,,,,Torma ApS,"Hedemøllevej 28, 8850 Bjerringbro",Not specified,,,Company site unknown
Vikarbureauer,Fax,,,"44 54 09 44,44 54 09 40",TEMP-TEAM A/S,"Herlev Bygade 50 A, 2730 Herlev",Not specified,,,http://www.temp-team.dk
Vikarbureauer,Mobil,,,"86 88 35 85,21 74 18 16",Astrup Support v/ Per Rhiger,"Silkeborgvej 116, 8620 Kjellerup",Not specified,,,Company site unknown
Vikarbureauer,,,,36 17 09 95,Ar Luftteknik ApS,"Høffdingsvej 24, st. sal., 2500 Valby",Not specified,,,Company site unknown
Vikarbureauer,,,,41 19 97 87,Vitokan Danmark ApS,"Føltvedvej 19, Ø. Hassing, 9362 Gandrup",Not specified,,,Company site unknown
Vikarbureauer,,,,59 47 03 11,JOBDK Kalundborg,"Bredgade 44, 1. sal., 4400 Kalundborg",Not specified,,,Company site unknown
Vikarbureauer,,,,97 88 71 00,AB Farms ApS,"Fjaltringbyvej 48 A, Fjaltring, 7620 Lemvig",Not specified,,,Company site unknown
Vikarbureauer,,,,,Njl Vikar og Flex Montage ApS,"Nørregade 63, 7200 Grindsted",Not specified,,,Company site unknown
Vikarbureauer,,,,60 46 74 45,Christensen- Personalegruppen,"Tranevej 13, 3480 Fredensborg",Not specified,,,Company site unknown
Vikarbureauer,,,,,Nyberg &amp; Lerche ApS,"Christianshavns Torv 2, 1. sal., 1410 København K",Not specified,,,Company site unknown
Vikarbureauer,Mobil,,,"86 12 94 54,23 26 98 49,30 66 30 69,31 45 09 14",Sygeplejerskernes Vikarbureau ApS.,"Klostergade 56 B, 8000 Aarhus C",Not specified,,,http://www.spvb.dk
Vikarbureauer,Mobil,,,"62 80 00 91,62 80 00 94",Landbrugets Jobservice,"Spanget 7, Korinth, 5600 Faaborg",Not specified,,,Company site unknown
Vikarbureauer,Mobil,,,"33 11 70 70,21 76 91 95,21 76 99 19,23 33 99 02",Kelly Services,"Købmagergade 26 A, 1150 København K",Not specified,,,http://www.kellyservices.dk
Vikarbureauer,Mobil,,,"70 21 60 21,40 30 76 02",Catenon ApS,"Rådhuspladsen 16, 1550 København V",Not specified,,,Company site unknown
Vikarbureauer,Mobil,,,"50 20 30 40,50 30 01 02,77 34 50 21",Sundvikar ApS,"Banegraven 18, 3550 Slangerup",Not specified,,,http://www.sundvikar.dk
Vikarbureauer,,,,70 20 89 86,Right People Group ApS,"Strandgade 12 B, 1401 København K",Not specified,,,Company site unknown
Vikarbureauer,,,,20 47 44 14,Vikaren,"Agervænget 14 D, Tved, 6000 Kolding",Not specified,,,Company site unknown
Vikarbureauer,Mobil,,,"66 10 26 86,40 16 26 86",Konsulent Poul-Henning Møller,"Åsumvej 97, 5240 Odense NØ",Not specified,,,Company site unknown
Vikarbureauer,Tlf.,,,"74 85 54 55,74 85 58 00",Henning Bruun Gryager,"Lintrupvej 41, 6660 Lintrup",Not specified,,,Company site unknown
Vikarbureauer,,,,,A/J PINGVIN v/ Anette Jarl Jørgensen,"Østerbrogade 85, 4. sal., 2100 København Ø",Not specified,,,Company site unknown
"Vikarbureauer,Entreprenører",,,BYGGARANTI,54 16 07 50,JKS A/S,"Østervej 2, 4960 Holeby",Not specified,,,http://www.jks.dk
Vikarbureauer,Mobil,,,"26 25 29 27,42 75 13 74",Kl Service ApS,"Thorkildsvej 4, 6000 Kolding",Not specified,,,http://www.KlService.dk
Vikarbureauer,Mobil,,,"75 42 07 13,22 36 72 61,22 75 38 57,22 88 38 57",M S Vikarservice v/ Majbritt Sørensen,"Øster Vedsted Vej 27, 6760 Ribe",Not specified,,,Company site unknown
Vikarbureauer,Fax,,,"75 50 18 44,75 53 44 76,


    ,
                            ",TEMP-TEAM A/S,"Pakhustorvet 12, 6000 Kolding",Not specified,,,http://www.temp-team.dk
Vikarbureauer,,,,,Jobcenter Sekretariatet,"Sønderbro 12, 9000 Aalborg",Not specified,,,Company site unknown
Vikarbureauer,Mobil,,,"28 15 45 20,51 21 06 02,53 16 26 30,53 16 26 32",Nordjysk Ressource ApS,"Havnepladsen 12, 9900 Frederikshavn",Not specified,,,Company site unknown
Vikarbureauer,,,,,Brian Jensen,"Brunkær 15, 6064 Jordrup",Not specified,,,Company site unknown
Vikarbureauer,,,,,"Konsulenthuset Ballisager, Ålborg","Sankt Jørgens Gade 3, 9000 Aalborg",Not specified,,,Company site unknown
Vikarbureauer,,,,74 62 50 50,Jobteam A/S,"Kliplev Hovedgade 4, Kliplev, 6200 Aabenraa",Not specified,,,http://www.jobteamdanmark.dk
Vikarbureauer,,,,,Jobcenter,"Helsingørsgade 10, 3400 Hillerød",Not specified,,,Company site unknown
Vikarbureauer,Fax,,,"97 94 50 11,97 94 58 34",Thy Sygepleje Vikarbureau I/S,"Bredgade 151, 7760 Hurup Thy",Not specified,,,http://www.thysygeplejevikarbureau.dk
Vikarbureauer,,,,,Matchmind A/S,"Rådhustorvet 11, 2. sal., 8700 Horsens",Not specified,,,Company site unknown
Vikarbureauer,,,,,Leader Service Dkk ApS,"Hvidkærvej 23, Højme, 5250 Odense SV",Not specified,,,Company site unknown
Vikarbureauer,"
E-mail                                ",,,"20 20 92 88,


    ,
                            ",El &amp; Tele Support,"Nørskovvej 105, Astrup, 9800 Hjørring",Not specified,,,Company site unknown
Vikarbureauer,Mobil,,,"41 89 40 30,40 96 21 55",capacent- institut for karriereudvikling A/S,"Kong Svends Plads 9 B, 6800 Varde",Not specified,,,Company site unknown
Vikarbureauer,Mobil,,,"28 92 97 46,28 92 97 46",Gartneriet. TH v/ Tummas Haraldsen,"Marienlystvej 12, Tilst, 8200 Aarhus N",Not specified,,,Company site unknown
Vikarbureauer,Mobil,,,"75 10 19 31,29 38 11 11,29 38 11 88,29 38 19 34",LMP Group ApS,"Glentevej 1, 6705 Esbjerg Ø",Not specified,,,http://www.lmpgroup.dk
Vikarbureauer,Mobil,,,"40 12 25 72,25 62 18 78,26 34 61 10",Vkaren II ApS,"Rugårdsvej 8, 5000 Odense C",Not specified,,,Company site unknown
Vikarbureauer,,,,,MAREX v/ Jozef Marek Dziecielski,"Nørrebrogade 51, st. sal., 2200 København N",Not specified,,,Company site unknown
Vikarbureauer,,,,60 68 80 05,Zamtax Vikar ApS,"Vognmandsmarken 23, 2100 København Ø",Not specified,,,Company site unknown
Vikarbureauer,,,,20 10 53 75,KBH Service,"Rugvangen 3, 4671 Strøby",Not specified,,,Company site unknown
Vikarbureauer,Fax,,Outsourcing###Vikarbureauer###Coaching###Erhvervscoaching###Erhvervspsykologer###Erhvervspsykologisk rådgivning###Executive coaching###Genplacering###Gruppecoaching###HR-konsulenter###Human resource management###Human Resource-konsulenter###Human resources###Individuel Coaching###Jobhjælp###Jobrekruttering###Jobsøgning###Karriererådgivning###Karriereudvikling###Kompetenceafdækning###Kompetenceafklaring###Kompetencespotting###Kompetenceudvikling###Konsulenter###Ledelse###Lederrekruttering###Lederudvikling###Opsigelser###Outplacement###Personalerekruttering###Personalerådgivning###Personaleudvikling###Psykologisk testning###Rekrutteringer###Rådgivende virksomheder###Search &amp; selection###Stresscoaching###Virksomhedsledelseskonsulenter###Virksomhedsrådgivere###Virksomhedsrådgivning###Virksomhedsudvikling###Vikarformidling###Newplacement,"70 20 03 83,72 17 44 50",Hartmanns A/S,"Herlev Ringvej 2 C, 2730 Herlev",Not specified,,,http://www.hartmanns.dk
Vikarbureauer,,,,56 66 08 01,CUR v/ Anna Cur Permin,"Stenumvej 5, 4600 Køge",Not specified,,,Company site unknown
Vikarbureauer,,,,,Charlottes Bureau v/ Charlotte Windfeld Sønder,"Hovedgaden 16, 3220 Tisvildeleje",Not specified,,,Company site unknown
Vikarbureauer,,,,28 71 03 23,Knudsens Vikar,"Munkebakken 10, 4400 Kalundborg",Not specified,,,Company site unknown
Vikarbureauer,,,,75 92 30 19,Jeb Holding ApS,"Lunddalvej 11, Erritsø, 7000 Fredericia",Not specified,,,Company site unknown
Vikarbureauer,,,,75 72 25 32,Handicap hjælp,"Løget Høj 8, 7100 Vejle",Not specified,,,Company site unknown
Vikarbureauer,Fax,,,"33 14 60 70,33 91 60 70",Erhversvikar ApS,"Sankt Jørgens Allé 7, st. tv., 1615 København V",Not specified,,,http://www.erhvervsvikar.dk
Vikarbureauer,Mobil,,,"31 60 02 03,31 31 37 31",Act Vikar &amp; Rekruttering S.M.B.A.,"Ved Faurgården 7, 4300 Holbæk",Not specified,,,http://www.actvikar.dk
Vikarbureauer,Mobil,,,"24 81 68 69,23 72 83 94,


    ,
                            ,
									,
								",Kokkevagten,"Ådalsparkvej 59, 4. th., 2970 Hørsholm",Not specified,,,http://www.kokkevagten.dk
Vikarbureauer,,,,30 78 35 65,Stentoft,"Stenderupvej 191, 6092 Sønder Stenderup",Not specified,,,Company site unknown
Vikarbureauer,,,,76 28 00 82,Vikarbureauet Medarbejderne ApS,"Søndergade 9, 8700 Horsens",Not specified,,,Company site unknown
Vikarbureauer,,,,31 38 42 44,Metakompagniet ApS,"Kigkurren 8 G, 2300 København S",Not specified,,,Company site unknown
Vikarbureauer,Fax,,,"45 76 90 45,45 76 90 47",Kinnerup Care Holding ApS,"Christianshusvej 4 F, 2970 Hørsholm",Not specified,,,http://www.kinnerupcare.dk
Vikarbureauer,Mobil,,,"86 54 00 30,21 73 60 50",Grünfeld Consulting v/ Ole Grünfeld,"Rude Skovvej 1, Rude Str, 8300 Odder",Not specified,,,Company site unknown
Vikarbureauer,,,,,Jobcentret Sygedagpenge,"Rådhus Alle 100, 9900 Frederikshavn",Not specified,,,Company site unknown
Vikarbureauer,Tlf.,,,"45 17 50 00,49 14 40 78,49 16 16 38,45 17 56 01",Jobhuset,"Byvejen 14, Niverød, 2990 Nivå",Not specified,,,Company site unknown
Vikarbureauer,,,,26 36 93 85,Hugo Svane Morton,"Ejby Smedevej 2 A, 2600 Glostrup",Not specified,,,Company site unknown
Vikarbureauer,,,,26 84 01 87,AKJ Vikar,"Dravedvej 18, Mosbøl, 6240 Løgumkloster",Not specified,,,Company site unknown
Vikarbureauer,,,,20 42 48 24,LP Mandskabsudlejning,"Harald Damtofts Vej 77, Nr. Felding, 7500 Holstebro",Not specified,,,http://www.lp-mandskab.dk
Vikarbureauer,Fax,,,"40 30 15 15,70 23 85 00",Scout ApS,"Carlsbergvej 24, 3400 Hillerød",Not specified,,,Company site unknown
Vikarbureauer,,,,,Jobcentret,"Bispebroen 2 C, 6100 Haderslev",Not specified,,,Company site unknown
Vikarbureauer,,,,45 80 08 50,Carsten Peter Tang-Holbek,"Skætterivej 20, 4300 Holbæk",Not specified,,,Company site unknown
Vikarbureauer,,,,,Global Match ApS,"Store Kongensgade 40 H, 3. sal., 1264 København K",Not specified,,,Company site unknown
Vikarbureauer,Mobil,,,"75 25 41 15,24 61 90 46",Marius Høj,"Arnbjergalle 1, 2. th., 6800 Varde",Not specified,,,Company site unknown
Vikarbureauer,Fax,,,"88 13 10 00,88 13 10 01",Maxforce ApS,"Dannebrogsgade 1, 5000 Odense C",Not specified,,,http://www.maxforce.dk
Vikarbureauer,,,,,Jobcenter Nordfyn,"Vesterled 8, 5471 Søndersø",Not specified,,,Company site unknown
Vikarbureauer,Mobil,,,"86 12 22 33,31 22 52 93,31 56 57 43,31 73 20 83",Jobmaster ApS,"Chr Christensens Vej 28, Kysing Næs, 8300 Odder",Not specified,,,http://www.jobmaster.dk
Vikarbureauer,Fax,,,"98 77 03 03,98 77 06 06",Proffice Care,"Vesterå 14, 9000 Aalborg",Not specified,,,http://www.profficecare.dk
Vikarbureauer,,,,66 15 54 76,I M A Service ApS,"Vægtens Kvarter 5, Holluf Pile, 5220 Odense SØ",Not specified,,,Company site unknown
Vikarbureauer,,,,75 27 27 27,Au-Pair Center,"Østergade 9, 6840 Oksbøl",Not specified,,,Company site unknown
"Rengøringsselskaber,Vikarbureauer",,,,75 73 32 45,KL Multi Service,"Grønnegade 15, Farre, 7323 Give",Not specified,,,Company site unknown
Vikarbureauer,,,,,Aagaard Vikar ApS,"Maglekildevej 13 A, 4000 Roskilde",Not specified,,,Company site unknown
Vikarbureauer,,,,43 55 21 13,Kims Assistance v/ Kim Brink Pedersen,"Solvej 29, 3600 Frederikssund",Not specified,,,Company site unknown
Vikarbureauer,,,,57 66 09 34,Temp-Team A/S,"Strandvejen 2 B, 4600 Køge",Not specified,,,http://www.temp-team.dk
Vikarbureauer,,,,,TipTopTeam I/S,"Konvalvej 4, st. tv., 9000 Aalborg",Not specified,,,Company site unknown
Vikarbureauer,,,,64 79 15 55,Institut for Karriereudvikling a/s,"Nørregade 20, 5620 Glamsbjerg",Not specified,,,Company site unknown
Vikarbureauer,Fax,,,"75 50 70 80,75 50 67 00,


    ,
                            ",Randstad,"Søndertorv 1, 6000 Kolding",Not specified,,,http://www.randstad.dk
Vikarbureauer,,,,87 80 00 07,Medarbejderne ApS,"Bredgade 57, 7400 Herning",Not specified,,,Company site unknown
Vikarbureauer,,,,61 86 88 52,Imflex,"Scoresbysundvej 3, 9210 Aalborg SØ",Not specified,,,Company site unknown
Vikarbureauer,,,,97 37 53 11,Æ-Daglejer v/ Johannes Jessen,"Bjerregårdsvej 11, Sdr. Vium, 6893 Hemmet",Not specified,,,Company site unknown
Vikarbureauer,,,,,A.N. Vikar Service v/ Nazar Karim,"Vesterbrogade 208, 1800 Frederiksberg C",Not specified,,,Company site unknown
Vikarbureauer,Mobil,,,"74 41 50 88,40 96 21 55",Institut for Karriereudvikling a/s,"Perlegade 9, 2. sal., 6400 Sønderborg",Not specified,,,Company site unknown
Vikarbureauer,,,,,Kompetencecentret,"Oldvejen 25, 4300 Holbæk",Not specified,,,Company site unknown
Vikarbureauer,Mobil,,,"29 39 12 60,29 39 12 60,52 24 42 00",Sydfynsvikaren ApS,"Ellekildevej 6, Thurø, 5700 Svendborg",Not specified,,,Company site unknown
Vikarbureauer,,,,,Specialfunktionen for Job og Handicap,"Vestre Engvej 56, 7100 Vejle",Not specified,,,http://www.bmhandicap.dk
Vikarbureauer,Tlf.,,,"35 14 48 00,70 27 73 72,20 45 73 72,41 93 07 10",Samson Gruppen A/S,"Enighedsvej 45, 4800 Nykøbing F",Not specified,,,Company site unknown
Vikarbureauer,Fax,,,"77 77 23 20,33 93 09 08","Adecco Medical &amp; Science, København","Frederiksborggade 34, 2. sal., 1360 København K",Not specified,,,http://www.adecco.dk
Vikarbureauer,Mobil,,,"27 89 67 24,27 89 67 22",Prima Vikar ApS,"Egehegnet 98, 2850 Nærum",Not specified,,,http://www.primavikar.dk
Vikarbureauer,,,,,Aktivering Ndr. Ringgade,"Ndr. Ringgade 59 F, 4200 Slagelse",Not specified,,,Company site unknown
Vikarbureauer,,,,,Scanafric ApS,"Selchausdalvej 4, Selchausdal, 4291 Ruds Vedby",Not specified,,,Company site unknown
Vikarbureauer,Fax,,,"48 14 14 36,48 14 14 29",Vikar Vagten,"Amtsvej 13, 3450 Allerød",Not specified,,,http://www.vikarvagten.dk
Vikarbureauer,,,,28 62 98 53,Total mandskabsudlejning,"Holsteinborgvej 13, 2720 Vanløse",Not specified,,,Company site unknown
Vikarbureauer,,,,,"Jobcenter Århus, Forsikrede ledige","Værkmestergade 5, 8000 Aarhus C",Not specified,,,Company site unknown
Vikarbureauer,,,,,IserveU v/ Lars Philip Venge,"Herluf Trolles Gade 10, 1052 København K",Not specified,,,Company site unknown
Vikarbureauer,Mobil,,,"70 22 93 00,31 41 93 00",IT-Jobbank A/S,"Islands Brygge 57, 2300 København S",Not specified,,,Company site unknown
Vikarbureauer,Fax,,,"55 75 02 30,55 75 02 39",Access Personnel A/S,"Hjultorv 6, 1. sal., 4700 Næstved",Not specified,,,http://www.access-personnel.dk
Vikarbureauer,Mobil,,Vikarbureauer###BYGGARANTI,"46 97 61 63,24 90 50 00",TH Byggeservice ApS,"Lergravsvej 53, 2300 København S",Not specified,,,Company site unknown
Vikarbureauer,Tlf.,,,"26 61 17 71,32 18 81 78,26 61 17 71,26 79 91 60","ANCA, HR &amp; Administration v/ Anita Carlsen","Ravnebjerggyden 98, Ravnebjerg, 5491 Blommenslyst",Not specified,,,Company site unknown
Vikarbureauer,Mobil,,,"72 10 01 12,20 70 78 71",Unitcare ApS,"Amtmandsvej 2, 4300 Holbæk",Not specified,,,http://www.unitcare.dk
Vikarbureauer,Fax,,,"33 31 31 74,70 20 35 80",Activ Senior Care A/S,"Nyvej 11, st. sal., 1851 Frederiksberg C",Not specified,,,http://www.activcare.dk
Vikarbureauer,,,,,"TeamVikaren.dk, København ApS, Lyngby afdeling","Lyngby Hovedgade 47, 1. sal., 2800 Kgs. Lyngby",Not specified,,,Company site unknown
Vikarbureauer,,,,70 15 00 10,Markman rekruttering &amp; genplacering,"Søndre Jernbanevej 13 D, 2. sal., 3400 Hillerød",Not specified,,,Company site unknown
Vikarbureauer,,,,54 43 06 75,JK Vikar Service,"Eskilstrup Vestergade 54, 4863 Eskilstrup",Not specified,,,Company site unknown
Vikarbureauer,Mobil,,,"26 75 94 91,27 63 26 63,28 76 74 55",Uldum Vikar Service,"Østerled 16, 7171 Uldum",Not specified,,,http://www.uldumvikarservice.dk
Vikarbureauer,,,,70 20 10 00,Manpower ApS Ringsted,"Søgade 1, 4100 Ringsted",Not specified,,,Company site unknown
Vikarbureauer,Tlf.,,,"98 47 35 05,61 67 57 98,61 67 57 98",Flex-Tech v/ Christian Svendsen,"Glimsholtvej 600, 9870 Sindal",Not specified,,,http://www.flex-tech.dk
Vikarbureauer,Mobil,,,"24 47 48 98,29 67 40 84",Trines Vikarservice,"Hammerholtvej 114, Hørmested, 9870 Sindal",Not specified,,,Company site unknown
Vikarbureauer,Mobil,,,"45 81 68 47,28 44 78 47",Rekrutterings Instituttet v/ Arne Steen Sørensen,"Skovhjørnet 2, 3460 Birkerød",Not specified,,,Company site unknown
Vikarbureauer,,,,,Chauffør Team ApS,"Solbakkevej 3, Toksværd, 4684 Holmegaard",Not specified,,,Company site unknown
Vikarbureauer,,,,,Projektledelse Nye muligheder,"Merkurvej 4, 4200 Slagelse",Not specified,,,Company site unknown
Vikarbureauer,Tlf.,,,"28 12 72 08,76 24 50 08,28 12 72 08",Bauer Consulting v/ Peter Fasting Bauer,"Hyldeblomsten 43, 8700 Horsens",Not specified,,,Company site unknown
Vikarbureauer,,,,27 10 05 03,Lubiz S.M.B.A.,"Sorøvej 134, Kindertofte, 4200 Slagelse",Not specified,,,Company site unknown
Vikarbureauer,Tlf.,,,"43 45 25 09,43 45 25 74",Clifford Service Contractors v/ Bjarne Olsen,"Siestavej 1 A, 3. sal., 2600 Glostrup",Not specified,,,Company site unknown
"Vikarbureauer,IT-konsulenter",,,,70 23 41 34,SCR Search &amp; Selection ApS,"Østerbrogade 125, 3. sal., 2100 København Ø",Not specified,,,http://www.scr-ciklum.dk
Vikarbureauer,Fax,,,"70 20 21 07,86 11 95 00",Production Crew ApS,"Marselis Boulevard 175, 8000 Aarhus C",Not specified,,,http://www.production-crew.dk
Vikarbureauer,,,,76 81 63 55,Specialfunktionen for Ligestilling,"Nybrogade 16, 2. sal., 9000 Aalborg",Not specified,,,Company site unknown
Vikarbureauer,Tlf.,,,"97 43 02 19,97 43 03 45",Henning Nielsen,"Råstedvej 8, Vind, 7500 Holstebro",Not specified,,,Company site unknown
Vikarbureauer,,,,,Job Team,"Gasværksvej 30 G, 9000 Aalborg",Not specified,,,Company site unknown
Vikarbureauer,Fax,,,"46 78 89 26,46 78 96 41",DK Vikar Center-Fyn I/S,"Kajakvej 9, 4040 Jyllinge",Not specified,,,Company site unknown
Vikarbureauer,Tlf.,,,"45 82 07 24,45 66 08 00,45 66 08 23,45 66 09 19",World Search Group Scandinavia Rødegård,"Sandbjergvej 11, 2970 Hørsholm",Not specified,,,http://www.worldsearchgroupscandinavia.com
Vikarbureauer,,,,29 40 02 78,EH-Vikarservice,"P. Knudsens Gade 20, 2450 København SV",Not specified,,,Company site unknown
Vikarbureauer,,,,,Institut for karriereudvikling A/S,"Vestergade 48, 1. sal., 5000 Odense C",Not specified,,,Company site unknown
Vikarbureauer,,,,40 74 53 46,Goos Freelance,"Ellekærshaven 40, Dalum, 5250 Odense SV",Not specified,,,http://www.printstation.dk
Vikarbureauer,,,,75 72 72 37,Vikargruppen Danmark A/S,"Hjulsporet 27, 4930 Maribo",Not specified,,,Company site unknown
Vikarbureauer,,,,30 32 45 49,Mekanisk Vikarservice ApS,"Præstebrovej 34, Hjortkær, 6818 Årre",Not specified,,,Company site unknown
Vikarbureauer,Tlf.,,,"35 36 73 32,51 60 70 70",Sax Crew v/ Stefan Benzon,"Ernie Wilkins Vej 17, st. th., 2450 København SV",Not specified,,,Company site unknown
Vikarbureauer,,,,27 51 33 90,Nova 100 ApS,"Nikolaj Plads 23, 3. sal., 1067 København K",Not specified,,,http://www.nova100.com
Vikarbureauer,,,,,Admina ApS,"Ledreborg Alle 130 B, 4000 Roskilde",Not specified,,,Company site unknown
Vikarbureauer,Mobil,,,"96 96 60 66,22 66 82 42",L.N. Vikar &amp; Maskinservice,"Sandelsvej 90, 9440 Aabybro",Not specified,,,Company site unknown
Vikarbureauer,,,,,4 - Udførerdelen - Birkeparken 72,"Birkeparken 72 B, 5240 Odense NØ",Not specified,,,Company site unknown
Vikarbureauer,,,,33 21 30 00,R. Company,"Fuglesangsvej 50, 3460 Birkerød",Not specified,,,Company site unknown
Vikarbureauer,,,,60 21 07 83,JP Vikarservice,"Møllevænget 21, 7900 Nykøbing M",Not specified,,,Company site unknown
Vikarbureauer,Mobil,,,"86 38 73 71,21 49 96 95",Jens's Vikarservice,"Glesborg Bygade 35, 8585 Glesborg",Not specified,,,Company site unknown
Vikarbureauer,Fax,,,"70 20 10 00,33 11 25 05",Manpower ApS Hellerup,"Baunegårdsvej 73, 2900 Hellerup",Not specified,,,http://www.manpower.dk
Vikarbureauer,Mobil,,,"70 23 85 00,22 60 08 01,22 60 08 06,22 60 08 08",Mandskab.nu ApS,"Vibekevej 11, 3400 Hillerød",Not specified,,,Company site unknown
Vikarbureauer,Fax,,Vikarbureauer###Personalerekruttering###BYGGARANTI,"46 31 07 50,46 31 07 51",JKS A/S,"Algade 15 G, 4000 Roskilde",Not specified,,,http://www.jks.dk
Vikarbureauer,,,,66 17 02 46,Ørnfeldt,"Thujavej 49, Dyrup, 5250 Odense SV",Not specified,,,Company site unknown
Vikarbureauer,,,,,Byens Vikar 24/7 I/S,"Blåbærhaven 13, 2980 Kokkedal",Not specified,,,Company site unknown
Vikarbureauer,,,,,Jobcenter Køge,"Strandvejen 99, 4600 Køge",Not specified,,,Company site unknown
Vikarbureauer,,,,,Tucjob ApS,"Kongevejen 340, Øverød, 2840 Holte",Not specified,,,Company site unknown
Vikarbureauer,,,,44 94 49 46,AdvoKon,"Vestvejen 25, Bjergby, 4440 Mørkøv",Not specified,,,Company site unknown
Vikarbureauer,,,,24 60 67 19,Jobcenter Brøndby,"Park Allé 160, 2605 Brøndby",Not specified,,,Company site unknown
Vikarbureauer,Tlf.,,,"96 13 09 44,96 13 01 50,96 13 09 40",Temp-Team A/S,"Østergade 2, 2. sal., 7500 Holstebro",Not specified,,,http://www.temp-team.dk
Vikarbureauer,Mobil,,,"20 43 24 87,51 18 21 86",Det Gode Arbejdsliv,"P. G. Ramms Allé 65, 2. th., 2000 Frederiksberg",Not specified,,,http://www.detgodearbejdsliv.dk
Vikarbureauer,Tlf.,,,"97 54 20 27,20 30 11 83",Poul Stilling Laursen,"Granvænget 17, 7850 Stoholm Jyll",Not specified,,,Company site unknown
Vikarbureauer,,,,72 22 33 60,Workindenmark-WEST,"Nørreport 26, 1. sal., 8000 Aarhus C",Not specified,,,Company site unknown
Vikarbureauer,,,,70 12 30 12,Lobpa,"Kløverprisvej 10 B, 2650 Hvidovre",Not specified,,,http://www.lobpa.dk
Vikarbureauer,,,,,Køgevej 18,"Køgevej 18, 4700 Næstved",Not specified,,,Company site unknown
Vikarbureauer,,,,30 67 06 52,Forenede Vikar,"Klamsagervej 12, 8230 Åbyhøj",Not specified,,,http://www.forenede-vikar.dk
Vikarbureauer,Mobil,,,"20 47 27 17,27 51 91 14",FM Service,"Brandstrupvej 81, 8840 Rødkærsbro",Not specified,,,Company site unknown
Vikarbureauer,,,,,AC Group Denmark,"Hestebakken 37, 9240 Nibe",Not specified,,,Company site unknown
Vikarbureauer,,,,31 22 01 00,Keto Vikar,"Engvej 30, Stenlille, 3660 Stenløse",Not specified,,,http://www.keto.nu
Vikarbureauer,,,,65 95 24 25,Finanshuset,"Gedehalsvej 8, Fraugdekærby, 5220 Odense SØ",Not specified,,,Company site unknown
Vikarbureauer,,,,,Drive.As ApS,"Marielundvej 29, 2730 Herlev",Not specified,,,Company site unknown
Vikarbureauer,Mobil,,,"70 10 13 12,20 35 37 42,20 63 14 56,21 33 44 13",Randstad,"Vester Farimagsgade 7, 2. sal., 1606 København V",Not specified,,,http://www.randstad.dk
Vikarbureauer,,,,22 76 56 05,Alex Lindstrøm Vikarservice,"Thistedvej 477, V. Thorup, 9690 Fjerritslev",Not specified,,,Company site unknown
Vikarbureauer,Mobil,,,"73 20 27 00,20 27 53 59,24 29 06 25,27 51 45 31",Sønderjysk Vikarservice,"Billundvej 3, 6500 Vojens",Not specified,,,http://www.vikarservice.com
"Elinstallatører,Vikarbureauer,Elektrikere",,,,22 24 27 09,Dyrholm El-Leasing,"Nordre Banevej 8, 4300 Holbæk",Not specified,,,Company site unknown
Vikarbureauer,,,,30 29 57 17,Clean Vision,"Kirkehøjvej 7, Ø. Tørslev, 8983 Gjerlev J",Not specified,,,http://www.clean-vision.dk
Vikarbureauer,Mobil,,,"58 50 44 50,20 21 10 50",Nielsens Håndsrækning,"Ndr. Ringgade 57, 4200 Slagelse",Not specified,,,Company site unknown
Vikarbureauer,,,,87 45 00 25,Sangill Group ApS,"Skæringvangen 24, 8250 Egå",Not specified,,,Company site unknown
Vikarbureauer,,,,26 16 43 25,Tømrermester Kim Pank Simonsen ApS,"Tordenskjoldsgade 83, 2. sal., 8200 Aarhus N",Not specified,,,Company site unknown
Vikarbureauer,,,,51 34 63 86,Steendahl Management v/ Sven Stendahl,"Søndervangsvej 68, st. tv., 2600 Glostrup",Not specified,,,Company site unknown
Vikarbureauer,Fax,,,"33 14 30 04,33 14 36 68,


    ,
                            ",Danvikar A/S,"Hyskenstræde 9, 1207 København K",Not specified,,,http://www.danvikar.dk
Vikarbureauer,,,Maskinstationer,,Damms Entreprise,"Asklevvej 3, Asklev, 8653 Them",Not specified,,,http://www.dammsentreprise.dk
Vikarbureauer,,,Bagervikar,,Gades Bagervikar,"Egedevej 56 A, 4640 Faxe",Not specified,,,Company site unknown
"Bygge- og anlægsarbejde,Vikarbureauer",,,Vikarer###Vikarbureauer,,Fynbo's Vikarservice,"Siøvej 3, Fynshav, 6440 Augustenborg",Not specified,,,Company site unknown
Vikarbureauer,,,Danske Malermestre,,Malervikar ApS,"Grævlingevej 20, Horne Terp, 9850 Hirtshals",Not specified,,,http://www.j-jeppesen.dk
Vikarbureauer,Fax,,Jobrekruttering###Vikarbureauer###Personalerekruttering,75 91 45 88,IVS ApS,"Vendersgade 17, 2. sal., 7000 Fredericia",Not specified,,,http://www.i-v-s.dk
Vikarbureauer,Fax,,Vikarbureauer###Personalerekruttering###Vikarjob###Personale###Vikar- og rekrutteringsbureauer,54 76 10 22,Euro-Workers ApS,"Vesterbrogade 1 A, 4930 Maribo",Not specified,,,Company site unknown
Vikarbureauer,Fax,,Vikarbureauer###Hjemmeservice,56 65 60 31,De Glade Vikarer ApS,"Ølbycenter 5, 1. sal., 4600 Køge",Not specified,,,http://www.degladevikarer.dk
Vikarbureauer,,,Budservice###Gylletransport,,Nielsens Service,"Kjellerupsvej 231, Gjøl, 9440 Aabybro",Not specified,,,http://www.nielsensservice.dk
Vikarbureauer,Fax,,Sygehjælpere###Plejehjemsassistenter,59 43 96 07,Omsorg Sjælland,"Tåstruphøj 14, 4300 Holbæk",Not specified,,,http://www.omsorgsjaelland.dk
Vikarbureauer,Fax,,Vikarbureauer###Rekrutteringsbureauer,96 10 60 78,Aktivpersonale A/S,"Vestergade 2, 7900 Nykøbing M",Not specified,,,http://www.aktivpersonale.dk
Vikarbureauer,Mobil,,Offshore jobs###Vikarbureauer,"29 65 94 30,63 61 03 65",Nordic Offshore A/S,"Torvet 17 C, 5600 Faaborg",Not specified,,,http://www.nordicoffshore.dk
Vikarbureauer,,,Vikarbureauer###Pædagoger,,Pædagogisk Vikarservice,"Bredgade 55 D, 7400 Herning",Not specified,,,http://www.pvservice.dk
Vikarbureauer,Fax,,Vikarbureauer###Rengøring,56 31 10 21,AAAvikar,"Energivej 9, 4690 Haslev",Not specified,,,http://www.aaavikar.dk
Vikarbureauer,,,Handymand###Gartnere,,J.K.H Service,"Grønnegade 13, Hornum, 9600 Aars",Not specified,,,Company site unknown
Vikarbureauer,Mobil,,Vognmandsforretninger###Vikarbureauer,86 99 27 01,Vognmændenes Vikarbureau,"Terosevej 11 F, 8541 Skødstrup",Not specified,,,http://www.vognmandensvikarbureau.dk
"Rekrutteringsfirmaer,Vikarbureauer",Fax,,Rekrutteringsbureauer###Vikarbureauer,86 13 28 78,JobHouse,"Ryesgade 9, 3. sal., 8000 Aarhus C",Not specified,,,http://www.jobhouse.dk
Vikarbureauer,Fax,,Anlægsgartnere###Vikar,"99 98 97 94,


    ,
                            ",Himmerlands Vikarservice I/S,"Hjortkjærsvej 30, 9600 Aars",Not specified,,,http://www.himmerlandsvikarservice.dk
Vikarbureauer,Mobil,,Vikarbureauer###Regnskabsassistance###Lønregnskaber###Bogføring###Momsregnskaber,"51 23 97 12,59 43 97 91",LS Kontorhjælp,"Æblevang 54, 4300 Holbæk","LS er et enkeltmandsfirma, som beskæftiger sig med en bred vifte af regnskabsopgaver. Jeg lægger stor vægt på at firmaerne bliver velfungerende i alle regnskabsmæssige hen-seender. Mine primære opgaver er at skabe et godt samarbejde med virksomheden…",,"Mine kunder består af små som mellemstore virksomheder lokaliseret over store dele af Sjælland - herunder hovedstaden.###Assistancen kan f.eks. bestå af:###- Bogføring af finans###- Bogføring af debitorer###- Bogføring af kreditorer###- Lønregnskab###- Afstemninger af løn, banker, debitorer og kreditorer###- Momsafregning til skat / listeangivelse ved eksport###- Bogholderi klargjort til revision###- Systematisering af virksomhedens arbejdsgange",http://www.lskontorhjaelp.dk
